{
"type": "FeatureCollection",
"name": "AOI_Wexford",
"crs": { "type": "name", "properties": { "name": "urn:ogc:def:crs:OGC:1.3:CRS84" } },
"features": [
{ "type": "Feature", "properties": { "id": 2 }, "geometry": { "type": "MultiPolygon", "coordinates": [ [ [ [ -6.557924834840217, 52.39494701884918 ], [ -6.552695215058497, 52.298173690668079 ], [ -6.422976455382932, 52.295228795131784 ], [ -6.36579003148972, 52.294023266748155 ], [ -6.37194577571854, 52.392531538595442 ], [ -6.557924834840217, 52.39494701884918 ] ] ] ] } }
]
}
