{
"type": "FeatureCollection",
"name": "Boundary_wgs84_",
"crs": { "type": "name", "properties": { "name": "urn:ogc:def:crs:OGC:1.3:CRS84" } },
"features": [
{ "type": "Feature", "properties": { "END_POINT_": "T1", "GAELTACHT_": null, "GUID": null, "START_POIN": null, "URI": null, "DIRECTION_": null, "DIRECTION1": null, "DIRECTIO_1": null, "FORM_CAPTU": null, "FORM_CHANG": null, "FORM_VALID": null, "FUNC_CAPTU": null, "FUNC_CHANG": null, "FUNC_VALID": null, "MAX_HT_CAP": null, "MAX_HT_CHA": null, "MAX_HT_VAL": null, "POLY_GEOM_": null, "POLY_GEOM1": null, "POLY_GEO_1": null, "SALINITY_C": null, "SALINITY_1": null, "SALINITY_V": null, "STATUS_CAP": null, "STATUS_CHA": null, "STATUS_VAL": null, "WIDTH_CAPT": null, "WIDTH_CHAN": null, "WIDTH_VALI": null, "Z_ORDER_CA": null, "Z_ORDER_CH": null, "Z_ORDER_VA": null, "DIRECTIO_2": null, "DIRECTIO_3": null, "DIRECTIO_4": null, "DIRECTIO_5": null, "FORM_CAP_1": null, "FORM_CHA_1": null, "FORM_ID": null, "FORM_VAL_1": null, "FUNC_CAP_1": null, "FUNC_CHA_1": null, "FUNC_ID": null, "FUNC_VAL_1": null, "MAX_HT_C_1": null, "MAX_HT_C_2": null, "MAX_HT_V_1": null, "MAX_HT_V_2": null, "POLY_GEO_2": null, "POLY_GEO_3": null, "POLY_GEO_4": null, "POLY_GEO_5": null, "POLY_GEO_6": null, "POLY_GEO_7": null, "SALINITY_2": null, "SALINITY_3": null, "STATUS_C_1": null, "STATUS_C_2": null, "STATUS_ID": null, "WIDTH_CH_1": null, "WIDTH_VA_1": null, "WIDTH_VALU": null, "Z_ORDER__1": null, "Z_ORDER__2": null, "Z_ORDER__3": null, "Z_ORDER__4": null, "CAPTURE_SP": null, "SALINITY_4": null, "SALINITY_I": null, "STATUS_V_1": null, "WIDTH_CA_1": null, "ENG_NAMED_": null, "ENG_NAMED1": null, "ENG_NAME_1": null, "ENG_NAME_2": null, "ENG_NAME_3": null, "ENG_NAME_4": null, "ENG_NAME_5": null, "ENG_NAME_6": null, "ENG_NAME_7": null, "ENG_NAME_8": null, "ENG_NAME_9": null, "GLE_NAMED_": null, "GLE_NAMED1": null, "GLE_NAME_1": null, "GLE_NAME_2": null, "GLE_NAME_3": null, "GLE_NAME_4": null, "GLE_NAME_5": null, "GLE_NAME_6": null, "GLE_NAME_7": null, "GLE_NAME_8": null, "GLE_NAME_9": null, "Shape_Leng": null, "Shape_Area": null }, "geometry": { "type": "MultiPolygon", "coordinates": [ [ [ [ -8.092389080354703, 53.683906651679294 ], [ -8.084914437503162, 53.417694371659039 ], [ -7.772704355319576, 53.414244536496788 ], [ -7.793978338820114, 53.687931459368592 ], [ -7.793978338820114, 53.687931459368592 ], [ -8.092389080354703, 53.683906651679294 ] ] ] ] } }
]
}
