{
"type": "FeatureCollection",
"name": "Classes_Kerry",
"crs": { "type": "name", "properties": { "name": "urn:ogc:def:crs:OGC:1.3:CRS84" } },
"features": [
{ "type": "Feature", "properties": { "id": 1, "classes": "VEG" }, "geometry": { "type": "MultiPolygon", "coordinates": [ [ [ [ -10.20235851314931, 52.14738746224932 ], [ -10.200872325183834, 52.14748716189284 ], [ -10.201080258438814, 52.146368115489757 ], [ -10.203352408197647, 52.146199766905404 ], [ -10.20235851314931, 52.14738746224932 ] ] ] ] } },
{ "type": "Feature", "properties": { "id": 2, "classes": "VEG" }, "geometry": { "type": "MultiPolygon", "coordinates": [ [ [ [ -10.19784859339207, 52.150799128224676 ], [ -10.197115619145437, 52.150758830372304 ], [ -10.197115619145437, 52.150758830372304 ], [ -10.196837661470299, 52.150458239400571 ], [ -10.196367643165354, 52.149225927729134 ], [ -10.197321895437561, 52.149010295073161 ], [ -10.19784859339207, 52.150799128224676 ] ] ] ] } },
{ "type": "Feature", "properties": { "id": 3, "classes": "VEG" }, "geometry": { "type": "MultiPolygon", "coordinates": [ [ [ [ -10.184247703112611, 52.132489831536809 ], [ -10.182639239958943, 52.133068212788622 ], [ -10.181050087445945, 52.131649712642854 ], [ -10.183489846326919, 52.131037970948043 ], [ -10.184247703112611, 52.132489831536809 ] ] ] ] } },
{ "type": "Feature", "properties": { "id": 4, "classes": "VEG" }, "geometry": { "type": "MultiPolygon", "coordinates": [ [ [ [ -10.18795159086465, 52.131431883765501 ], [ -10.186533977649185, 52.131727985341904 ], [ -10.186533977649185, 52.131727985341904 ], [ -10.185897175411323, 52.13066060434808 ], [ -10.187838150499854, 52.130309831314655 ], [ -10.18795159086465, 52.131431883765501 ] ] ] ] } },
{ "type": "Feature", "properties": { "id": 5, "classes": "VEG" }, "geometry": { "type": "MultiPolygon", "coordinates": [ [ [ [ -10.105039969456071, 52.13121492518917 ], [ -10.103193271961903, 52.130789236998702 ], [ -10.104332087764483, 52.12952785958948 ], [ -10.105897096521474, 52.129868630815203 ], [ -10.105039969456071, 52.13121492518917 ] ] ] ] } },
{ "type": "Feature", "properties": { "id": 6, "classes": "VEG" }, "geometry": { "type": "MultiPolygon", "coordinates": [ [ [ [ -10.106622401223261, 52.129136219545096 ], [ -10.10504620197896, 52.128867603065601 ], [ -10.10504620197896, 52.128867603065601 ], [ -10.105886799826585, 52.127791397631803 ], [ -10.10726916984876, 52.128288296575356 ], [ -10.106622401223261, 52.129136219545096 ] ] ] ] } },
{ "type": "Feature", "properties": { "id": 7, "classes": "VEG" }, "geometry": { "type": "MultiPolygon", "coordinates": [ [ [ [ -10.107993068626891, 52.141144541174164 ], [ -10.106276570305495, 52.141319110586437 ], [ -10.104040597220367, 52.139776246184667 ], [ -10.109518437643729, 52.136926454014109 ], [ -10.112218910168236, 52.139018468919851 ], [ -10.107993068626891, 52.141144541174164 ] ] ] ] } },
{ "type": "Feature", "properties": { "id": 8, "classes": "BARE" }, "geometry": { "type": "MultiPolygon", "coordinates": [ [ [ [ -10.092953608192666, 52.160172100550319 ], [ -10.090414755710581, 52.160289081863922 ], [ -10.090336098791092, 52.159858808242028 ], [ -10.092510789207489, 52.159460512639129 ], [ -10.092953608192666, 52.160172100550319 ] ] ] ] } },
{ "type": "Feature", "properties": { "id": 9, "classes": "BARE" }, "geometry": { "type": "MultiPolygon", "coordinates": [ [ [ [ -10.088611802014743, 52.16363048430447 ], [ -10.087836739940036, 52.163005701504609 ], [ -10.088483733607735, 52.162769417197822 ], [ -10.08919909137715, 52.163368274383188 ], [ -10.088611802014743, 52.16363048430447 ] ] ] ] } },
{ "type": "Feature", "properties": { "id": 10, "classes": "BARE" }, "geometry": { "type": "MultiPolygon", "coordinates": [ [ [ [ -10.084502785173425, 52.161445931734704 ], [ -10.083184781793177, 52.161091514740605 ], [ -10.083723620532124, 52.160731264137468 ], [ -10.084544849172353, 52.161094458226195 ], [ -10.084502785173425, 52.161445931734704 ] ] ] ] } },
{ "type": "Feature", "properties": { "id": 11, "classes": "WATER" }, "geometry": { "type": "MultiPolygon", "coordinates": [ [ [ [ -10.07022297226462, 52.181437225884792 ], [ -10.065733387384581, 52.18052671560644 ], [ -10.066514531243101, 52.179074147013104 ], [ -10.069302613526327, 52.178629566987254 ], [ -10.071383194550968, 52.179959983425846 ], [ -10.07022297226462, 52.181437225884792 ] ] ] ] } },
{ "type": "Feature", "properties": { "id": 12, "classes": "WATER" }, "geometry": { "type": "MultiPolygon", "coordinates": [ [ [ [ -10.071614562015162, 52.179744583333509 ], [ -10.070978105046427, 52.178640625418069 ], [ -10.071949494056767, 52.179082208232607 ], [ -10.071614562015162, 52.179744583333509 ] ] ] ] } },
{ "type": "Feature", "properties": { "id": 13, "classes": "WATER" }, "geometry": { "type": "MultiPolygon", "coordinates": [ [ [ [ -10.092795368420813, 52.269993105782142 ], [ -10.07647615742345, 52.268338856617753 ], [ -10.074687143861741, 52.257650749927897 ], [ -10.081289424770894, 52.253433720094812 ], [ -10.096828664122555, 52.249849235280003 ], [ -10.106061612227586, 52.250512175877013 ], [ -10.092795368420813, 52.269993105782142 ] ] ] ] } },
{ "type": "Feature", "properties": { "id": 14, "classes": "DRYHEATH" }, "geometry": { "type": "MultiPolygon", "coordinates": [ [ [ [ -10.099898242213056, 52.198804274117776 ], [ -10.098939048930253, 52.198947248856953 ], [ -10.09633903000868, 52.199676956799756 ], [ -10.096276435534362, 52.198347099177916 ], [ -10.097484920501593, 52.197282422881273 ], [ -10.100272545699434, 52.19618962591327 ], [ -10.101608044013526, 52.196579518748777 ], [ -10.101759378096485, 52.197925779930081 ], [ -10.099898242213056, 52.198804274117776 ] ] ] ] } },
{ "type": "Feature", "properties": { "id": 15, "classes": "DRYHEATH" }, "geometry": { "type": "MultiPolygon", "coordinates": [ [ [ [ -10.106036181843587, 52.206662685920719 ], [ -10.104837985101396, 52.204849490580358 ], [ -10.10489308700317, 52.204776562997829 ], [ -10.106696377920654, 52.204528538307876 ], [ -10.107401773241781, 52.20458788277088 ], [ -10.108086105910454, 52.205438987814709 ], [ -10.106036181843587, 52.206662685920719 ] ] ] ] } },
{ "type": "Feature", "properties": { "id": 16, "classes": "WETHEATH" }, "geometry": { "type": "MultiPolygon", "coordinates": [ [ [ [ -10.118983124859277, 52.174199612692171 ], [ -10.121018078922406, 52.173929209345083 ], [ -10.121817536706148, 52.174130662444014 ], [ -10.121872283753238, 52.17528079544438 ], [ -10.12030667092553, 52.175578747950247 ], [ -10.118469419257911, 52.175701697405749 ], [ -10.118983124859277, 52.174199612692171 ] ] ] ] } },
{ "type": "Feature", "properties": { "id": 17, "classes": "WETHEATH" }, "geometry": { "type": "MultiPolygon", "coordinates": [ [ [ [ -10.119632616783452, 52.187857449767982 ], [ -10.119476338674582, 52.187032894022465 ], [ -10.11987797562224, 52.186863800078569 ], [ -10.120814442996151, 52.186864950511875 ], [ -10.121116232218293, 52.187057371412799 ], [ -10.120991428779057, 52.187509270458015 ], [ -10.119632616783452, 52.187857449767982 ] ] ] ] } },
{ "type": "Feature", "properties": { "id": 18, "classes": "URBAN" }, "geometry": { "type": "MultiPolygon", "coordinates": [ [ [ [ -10.0209492163224, 52.254437459447722 ], [ -10.020479036331693, 52.254409538391506 ], [ -10.020371232258404, 52.254294476758382 ], [ -10.020367556365331, 52.254213603943384 ], [ -10.020417547081717, 52.254023898069207 ], [ -10.020591616363145, 52.253984946522813 ], [ -10.020835691589699, 52.254196596137639 ], [ -10.0209492163224, 52.254437459447722 ] ] ] ] } },
{ "type": "Feature", "properties": { "id": 19, "classes": "URBAN" }, "geometry": { "type": "MultiPolygon", "coordinates": [ [ [ [ -10.021854739872321, 52.251472290431039 ], [ -10.021741768972799, 52.251887897621337 ], [ -10.021492868244215, 52.251892161285845 ], [ -10.021367566486948, 52.251714450204055 ], [ -10.021254046855333, 52.251473587143416 ], [ -10.021260516515966, 52.251293619029731 ], [ -10.021316629137459, 52.251238700779062 ], [ -10.02178023719665, 52.251122845008851 ], [ -10.021834642674976, 52.250708241076254 ], [ -10.021967227527623, 52.250723955291456 ], [ -10.02207625296278, 52.250865973171102 ], [ -10.02209661608982, 52.250991524407134 ], [ -10.022045000712327, 52.251145287520607 ], [ -10.021854739872321, 52.251472290431039 ] ] ] ] } },
{ "type": "Feature", "properties": { "id": 20, "classes": "SAND" }, "geometry": { "type": "MultiPolygon", "coordinates": [ [ [ [ -10.045084724894766, 52.272933725958552 ], [ -10.042226944896571, 52.273270975938644 ], [ -10.043512558746459, 52.271899795839936 ], [ -10.047500702770918, 52.268737134091289 ], [ -10.048421216940245, 52.26899094890932 ], [ -10.048788482526223, 52.269326304039403 ], [ -10.048218891939911, 52.270325406024511 ], [ -10.047380349049247, 52.271850757056491 ], [ -10.045084724894766, 52.272933725958552 ] ] ] ] } },
{ "type": "Feature", "properties": { "id": 21, "classes": "WATER" }, "geometry": { "type": "MultiPolygon", "coordinates": [ [ [ [ -10.226948147703625, 52.191473717070274 ], [ -10.225219979354804, 52.190858822148513 ], [ -10.225315389977531, 52.190425346371818 ], [ -10.225752675703138, 52.189805554242376 ], [ -10.226938354295262, 52.190106928928344 ], [ -10.228886037434521, 52.190429866486653 ], [ -10.226948147703625, 52.191473717070274 ] ] ] ] } }
]
}
