{
"type": "FeatureCollection",
"name": "Corkcity_Boundary_wgs84",
"crs": { "type": "name", "properties": { "name": "urn:ogc:def:crs:OGC:1.3:CRS84" } },
"features": [
{ "type": "Feature", "properties": { "END_POINT_": "1", "GAELTACHT_": null, "GUID": null, "START_POIN": null, "URI": null, "DIRECTION_": "1899-12-30", "DIRECTION1": "1899-12-30", "DIRECTIO_1": "1899-12-30", "FORM_CAPTU": "1899-12-30", "FORM_CHANG": "1899-12-30", "FORM_VALID": "1899-12-30", "FUNC_CAPTU": "1899-12-30", "FUNC_CHANG": "1899-12-30", "FUNC_VALID": "1899-12-30", "MAX_HT_CAP": "1899-12-30", "MAX_HT_CHA": "1899-12-30", "MAX_HT_VAL": "1899-12-30", "POLY_GEOM_": "1899-12-30", "POLY_GEOM1": "1899-12-30", "POLY_GEO_1": "1899-12-30", "SALINITY_C": "1899-12-30", "SALINITY_1": "1899-12-30", "SALINITY_V": "1899-12-30", "STATUS_CAP": "1899-12-30", "STATUS_CHA": "1899-12-30", "STATUS_VAL": "1899-12-30", "WIDTH_CAPT": "1899-12-30", "WIDTH_CHAN": "1899-12-30", "WIDTH_VALI": "1899-12-30", "Z_ORDER_CA": "1899-12-30", "Z_ORDER_CH": "1899-12-30", "Z_ORDER_VA": "1899-12-30", "DIRECTIO_2": 0, "DIRECTIO_3": 0, "DIRECTIO_4": 0, "DIRECTIO_5": 0, "FORM_CAP_1": 0, "FORM_CHA_1": 0, "FORM_ID": 0, "FORM_VAL_1": 0, "FUNC_CAP_1": 0, "FUNC_CHA_1": 0, "FUNC_ID": 0, "FUNC_VAL_1": 0, "MAX_HT_C_1": 0, "MAX_HT_C_2": 0, "MAX_HT_V_1": 0, "MAX_HT_V_2": 0, "POLY_GEO_2": 0, "POLY_GEO_3": 0, "POLY_GEO_4": 0, "POLY_GEO_5": 0, "POLY_GEO_6": 0, "POLY_GEO_7": 0, "SALINITY_2": 0, "SALINITY_3": 0, "STATUS_C_1": 0, "STATUS_C_2": 0, "STATUS_ID": 0, "WIDTH_CH_1": 0, "WIDTH_VA_1": 0, "WIDTH_VALU": 0, "Z_ORDER__1": 0, "Z_ORDER__2": 0, "Z_ORDER__3": 0, "Z_ORDER__4": 0, "CAPTURE_SP": 0, "SALINITY_4": 0, "SALINITY_I": 0, "STATUS_V_1": 0, "WIDTH_CA_1": 0, "ENG_NAMED_": null, "ENG_NAMED1": null, "ENG_NAME_1": null, "ENG_NAME_2": null, "ENG_NAME_3": null, "ENG_NAME_4": null, "ENG_NAME_5": null, "ENG_NAME_6": null, "ENG_NAME_7": null, "ENG_NAME_8": null, "ENG_NAME_9": null, "GLE_NAMED_": null, "GLE_NAMED1": null, "GLE_NAME_1": null, "GLE_NAME_2": null, "GLE_NAME_3": null, "GLE_NAME_4": null, "GLE_NAME_5": null, "GLE_NAME_6": null, "GLE_NAME_7": null, "GLE_NAME_8": null, "GLE_NAME_9": null, "Shape_Leng": 0.0, "Shape_Area": 0.0 }, "geometry": { "type": "MultiPolygon", "coordinates": [ [ [ [ -8.589014994769371, 51.939258263868666, 0.0 ], [ -8.315858649581207, 51.94599348392552, 0.0 ], [ -8.300997041655945, 51.837175568213532, 0.0 ], [ -8.583001991176046, 51.830124313024236, 0.0 ], [ -8.589014994769371, 51.939258263868666, 0.0 ] ] ] ] } }
]
}
