{
"type": "FeatureCollection",
"name": "SPAIN_Admin_boundary_AOI_WGS84",
"crs": { "type": "name", "properties": { "name": "urn:ogc:def:crs:OGC:1.3:CRS84" } },
"features": [
{ "type": "Feature", "properties": { "ID_0": 215, "ISO": "ESP", "NAME_0": "Spain", "ID_1": 10, "NAME_1": "Comunidad Valenciana", "HASC_1": "ES.VC", "CCN_1": 0, "CCA_1": "10", "TYPE_1": "Comunidad Autónoma", "ENGTYPE_1": "Autonomous Community", "NL_NAME_1": null, "VARNAME_1": "Valencia|Communauté de Valence|Comunidade Valenciana|Comunidad Valenciana|Comunitat Valenciana" }, "geometry": { "type": "MultiPolygon", "coordinates": [ [ [ [ -0.323473006486836, 39.469739711034606 ], [ -0.323473006486836, 39.469306945800838 ], [ -0.323751002550068, 39.469306945800838 ], [ -0.323751002550068, 39.468471527099666 ], [ -0.323473006486836, 39.468471527099666 ], [ -0.323473006486836, 39.467361450195312 ], [ -0.323195010423603, 39.467361450195312 ], [ -0.323195010423603, 39.466804504394531 ], [ -0.322917014360371, 39.466804504394531 ], [ -0.322917014360371, 39.465972900390739 ], [ -0.322638988494816, 39.465972900390739 ], [ -0.322638988494816, 39.464305877685661 ], [ -0.322360992431584, 39.464305877685661 ], [ -0.322360992431584, 39.46402740478527 ], [ -0.322082996368351, 39.46402740478527 ], [ -0.322082996368351, 39.463748931884879 ], [ -0.321806997060776, 39.463748931884879 ], [ -0.321806997060776, 39.463195800781307 ], [ -0.321694999933186, 39.463195800781307 ], [ -0.321529000997543, 39.463195800781307 ], [ -0.321529000997543, 39.462917327880916 ], [ -0.320973008871078, 39.462917327880916 ], [ -0.320973008871078, 39.463195800781307 ], [ -0.320695012807846, 39.463195800781307 ], [ -0.320695012807846, 39.462917327880916 ], [ -0.320416003465539, 39.462917327880916 ], [ -0.320416003465539, 39.462638854980526 ], [ -0.320138007402306, 39.462638854980526 ], [ -0.320138007402306, 39.462081909179744 ], [ -0.319860011339131, 39.462081909179744 ], [ -0.319860011339131, 39.461807250976562 ], [ -0.319581985473633, 39.461807250976562 ], [ -0.319581985473633, 39.460693359375 ], [ -0.319306999444905, 39.460693359375 ], [ -0.319306999444905, 39.460140228271598 ], [ -0.319029003381672, 39.460140228271598 ], [ -0.319029003381672, 39.459861755371207 ], [ -0.318749994039479, 39.459861755371207 ], [ -0.318749994039479, 39.459583282470817 ], [ -0.318471997976246, 39.459583282470817 ], [ -0.318471997976246, 39.459304809570256 ], [ -0.318194001913071, 39.459304809570256 ], [ -0.318194001913071, 39.459026336669865 ], [ -0.317916005849838, 39.459026336669865 ], [ -0.317916005849838, 39.458751678466854 ], [ -0.317638009786606, 39.458751678466854 ], [ -0.317638009786606, 39.458194732666072 ], [ -0.317360013723373, 39.458194732666072 ], [ -0.317360013723373, 39.457916259765739 ], [ -0.317084014415627, 39.457916259765739 ], [ -0.317084014415627, 39.457637786865348 ], [ -0.316805988550186, 39.457637786865348 ], [ -0.316805988550186, 39.457084655761719 ], [ -0.316527992486954, 39.457084655761719 ], [ -0.316527992486954, 39.456806182861385 ], [ -0.316249996423721, 39.456806182861385 ], [ -0.316249996423721, 39.456527709960994 ], [ -0.315972000360489, 39.456527709960994 ], [ -0.315972000360489, 39.456249237060604 ], [ -0.315694004297256, 39.456249237060604 ], [ -0.315694004297256, 39.455970764160213 ], [ -0.315416008234024, 39.455970764160213 ], [ -0.315416008234024, 39.455696105957031 ], [ -0.315138012170678, 39.455696105957031 ], [ -0.315138012170678, 39.455417633056641 ], [ -0.314862012863159, 39.455417633056641 ], [ -0.314862012863159, 39.45513916015625 ], [ -0.314583986997548, 39.45513916015625 ], [ -0.314583986997548, 39.454860687255859 ], [ -0.314305990934315, 39.454860687255859 ], [ -0.314305990934315, 39.454303741455078 ], [ -0.314027994871083, 39.454303741455078 ], [ -0.314027994871083, 39.454029083252067 ], [ -0.31374999880785, 39.454029083252067 ], [ -0.31374999880785, 39.453750610351676 ], [ -0.313472002744618, 39.453750610351676 ], [ -0.313472002744618, 39.453472137451286 ], [ -0.313194006681385, 39.453472137451286 ], [ -0.313194006681385, 39.452915191650334 ], [ -0.31291601061821, 39.452915191650334 ], [ -0.31291601061821, 39.452640533447322 ], [ -0.312638014554977, 39.452640533447322 ], [ -0.312638014554977, 39.452362060546932 ], [ -0.31208398938179, 39.452362060546932 ], [ -0.31208398938179, 39.452083587646541 ], [ -0.311805993318558, 39.452083587646541 ], [ -0.311805993318558, 39.451805114746151 ], [ -0.311527997255325, 39.451805114746151 ], [ -0.311527997255325, 39.451526641845817 ], [ -0.31097200512886, 39.451526641845817 ], [ -0.31097200512886, 39.451248168945426 ], [ -0.310416013002396, 39.451248168945426 ], [ -0.310416013002396, 39.450973510742188 ], [ -0.310140013694706, 39.450973510742188 ], [ -0.310140013694706, 39.450695037841797 ], [ -0.309583991765919, 39.450695037841797 ], [ -0.309583991765919, 39.450138092041072 ], [ -0.310140013694706, 39.450138092041072 ], [ -0.310140013694706, 39.449859619140682 ], [ -0.310416013002396, 39.449859619140682 ], [ -0.310416013002396, 39.449584960937443 ], [ -0.312361985445023, 39.449584960937443 ], [ -0.312361985445023, 39.449859619140682 ], [ -0.31291601061821, 39.449859619140682 ], [ -0.31291601061821, 39.449584960937443 ], [ -0.313194006681385, 39.449584960937443 ], [ -0.313194006681385, 39.449481964111271 ], [ -0.313194006681385, 39.449306488037109 ], [ -0.313472002744618, 39.449306488037109 ], [ -0.313472002744618, 39.449028015136719 ], [ -0.31374999880785, 39.449028015136719 ], [ -0.31374999880785, 39.448471069335938 ], [ -0.314027994871083, 39.448471069335938 ], [ -0.314027994871083, 39.447917938232536 ], [ -0.314305990934315, 39.447917938232536 ], [ -0.314305990934315, 39.447639465332145 ], [ -0.314583986997548, 39.447639465332145 ], [ -0.314583986997548, 39.447360992431754 ], [ -0.315972000360489, 39.447360992431754 ], [ -0.315972000360489, 39.447639465332145 ], [ -0.316249996423721, 39.447639465332145 ], [ -0.316249996423721, 39.447917938232536 ], [ -0.316527992486954, 39.447917938232536 ], [ -0.316527992486954, 39.448192596435547 ], [ -0.316805988550186, 39.448192596435547 ], [ -0.316805988550186, 39.448749542236328 ], [ -0.317084014415627, 39.448749542236328 ], [ -0.317084014415627, 39.449306488037109 ], [ -0.317360013723373, 39.449306488037109 ], [ -0.317360013723373, 39.449584960937443 ], [ -0.317638009786606, 39.449584960937443 ], [ -0.317638009786606, 39.449859619140682 ], [ -0.317916005849838, 39.449859619140682 ], [ -0.317916005849838, 39.450138092041072 ], [ -0.318194001913071, 39.450138092041072 ], [ -0.318194001913071, 39.450416564941463 ], [ -0.318471997976246, 39.450416564941463 ], [ -0.318471997976246, 39.450695037841797 ], [ -0.318749994039479, 39.450695037841797 ], [ -0.318749994039479, 39.451248168945426 ], [ -0.319029003381672, 39.451248168945426 ], [ -0.319029003381672, 39.452083587646541 ], [ -0.319306999444905, 39.452083587646541 ], [ -0.319306999444905, 39.452640533447322 ], [ -0.319581985473633, 39.452640533447322 ], [ -0.319581985473633, 39.452915191650334 ], [ -0.319860011339131, 39.452915191650334 ], [ -0.319860011339131, 39.453193664550895 ], [ -0.320138007402306, 39.453193664550895 ], [ -0.320138007402306, 39.453472137451286 ], [ -0.320416003465539, 39.453472137451286 ], [ -0.320416003465539, 39.454029083252067 ], [ -0.320695012807846, 39.454029083252067 ], [ -0.320695012807846, 39.454303741455078 ], [ -0.320973008871078, 39.454303741455078 ], [ -0.320973008871078, 39.454860687255859 ], [ -0.321251004934311, 39.454860687255859 ], [ -0.321251004934311, 39.455417633056641 ], [ -0.321529000997543, 39.455417633056641 ], [ -0.321529000997543, 39.455696105957031 ], [ -0.321806997060776, 39.455696105957031 ], [ -0.321806997060776, 39.455970764160213 ], [ -0.322360992431584, 39.455970764160213 ], [ -0.322360992431584, 39.456249237060604 ], [ -0.322638988494816, 39.456249237060604 ], [ -0.322638988494816, 39.456527709960994 ], [ -0.322917014360371, 39.456527709960994 ], [ -0.322917014360371, 39.456806182861385 ], [ -0.323195010423603, 39.456806182861385 ], [ -0.323195010423603, 39.457084655761719 ], [ -0.323473006486836, 39.457084655761719 ], [ -0.323473006486836, 39.457359313964957 ], [ -0.324582993984222, 39.457359313964957 ], [ -0.324582993984222, 39.457637786865348 ], [ -0.324860990047455, 39.457637786865348 ], [ -0.324921995401382, 39.457916259765739 ], [ -0.325138986110687, 39.457916259765739 ], [ -0.325138986110687, 39.458473205566463 ], [ -0.324946999549809, 39.458473205566463 ], [ -0.324860990047455, 39.458473205566463 ], [ -0.324860990047455, 39.458751678466854 ], [ -0.324582993984222, 39.458751678466854 ], [ -0.324636995792389, 39.459861755371207 ], [ -0.324860990047455, 39.459861755371207 ], [ -0.324860990047455, 39.460414886474609 ], [ -0.325138986110687, 39.460414886474609 ], [ -0.325138986110687, 39.460693359375 ], [ -0.325417011976242, 39.460693359375 ], [ -0.325417011976242, 39.460971832275391 ], [ -0.325695008039474, 39.460971832275391 ], [ -0.325695008039474, 39.461250305175781 ], [ -0.325973004102707, 39.461250305175781 ], [ -0.325973004102707, 39.461528778076172 ], [ -0.326526999473515, 39.461528778076172 ], [ -0.326526999473515, 39.461807250976562 ], [ -0.328750997781697, 39.461807250976562 ], [ -0.328750997781697, 39.461528778076172 ], [ -0.329026997089386, 39.461528778076172 ], [ -0.329026997089386, 39.461250305175781 ], [ -0.329304993152618, 39.461250305175781 ], [ -0.329304993152618, 39.460971832275391 ], [ -0.329582989215851, 39.460971832275391 ], [ -0.329582989215851, 39.460693359375 ], [ -0.329860985279083, 39.460693359375 ], [ -0.329860985279083, 39.460414886474609 ], [ -0.330139011144524, 39.460414886474609 ], [ -0.330139011144524, 39.460140228271598 ], [ -0.33041700720787, 39.460140228271598 ], [ -0.33041700720787, 39.458751678466854 ], [ -0.330139011144524, 39.458751678466854 ], [ -0.330139011144524, 39.457916259765739 ], [ -0.329860985279083, 39.457916259765739 ], [ -0.329860985279083, 39.457637786865348 ], [ -0.329304993152618, 39.457637786865348 ], [ -0.329304993152618, 39.457359313964957 ], [ -0.329026997089386, 39.457359313964957 ], [ -0.329026997089386, 39.457084655761719 ], [ -0.328473001718464, 39.457084655761719 ], [ -0.328473001718464, 39.456806182861385 ], [ -0.327639013528824, 39.456806182861385 ], [ -0.327639013528824, 39.457084655761719 ], [ -0.327360987663212, 39.457084655761719 ], [ -0.327360987663212, 39.457359313964957 ], [ -0.32708299159998, 39.457359313964957 ], [ -0.32708299159998, 39.457637786865348 ], [ -0.326526999473515, 39.457637786865348 ], [ -0.326526999473515, 39.457778930664006 ], [ -0.326526999473515, 39.457916259765739 ], [ -0.325973004102707, 39.457916259765739 ], [ -0.325973004102707, 39.457637786865348 ], [ -0.325417011976242, 39.457637786865348 ], [ -0.325417011976242, 39.457359313964957 ], [ -0.325138986110687, 39.457359313964957 ], [ -0.325138986110687, 39.456527709960994 ], [ -0.325417011976242, 39.456527709960994 ], [ -0.325417011976242, 39.456249237060604 ], [ -0.325695008039474, 39.456249237060604 ], [ -0.325695008039474, 39.455970764160213 ], [ -0.325973004102707, 39.455970764160213 ], [ -0.325973004102707, 39.455696105957031 ], [ -0.326251000165939, 39.455696105957031 ], [ -0.326251000165939, 39.455417633056641 ], [ -0.326526999473515, 39.455417633056641 ], [ -0.326526999473515, 39.45513916015625 ], [ -0.326647996902466, 39.45513916015625 ], [ -0.326804995536747, 39.45513916015625 ], [ -0.326804995536747, 39.454860687255859 ], [ -0.32708299159998, 39.454860687255859 ], [ -0.32708299159998, 39.454582214355469 ], [ -0.326804995536747, 39.454582214355469 ], [ -0.326804995536747, 39.454303741455078 ], [ -0.326251000165939, 39.454303741455078 ], [ -0.326251000165939, 39.454029083252067 ], [ -0.32430499792099, 39.454029083252067 ], [ -0.32430499792099, 39.453750610351676 ], [ -0.324028998613301, 39.453750610351676 ], [ -0.324028998613301, 39.453594207763729 ], [ -0.324028998613301, 39.453472137451286 ], [ -0.323751002550068, 39.453472137451286 ], [ -0.323751002550068, 39.453193664550895 ], [ -0.323473006486836, 39.453193664550895 ], [ -0.323473006486836, 39.451526641845817 ], [ -0.323195010423603, 39.451526641845817 ], [ -0.323195010423603, 39.450973510742188 ], [ -0.322917014360371, 39.450973510742188 ], [ -0.322917014360371, 39.450695037841797 ], [ -0.322638988494816, 39.450695037841797 ], [ -0.322638988494816, 39.4505615234375 ], [ -0.322638988494816, 39.450416564941463 ], [ -0.322360992431584, 39.450416564941463 ], [ -0.322360992431584, 39.450138092041072 ], [ -0.321447014808598, 39.450138092041072 ], [ -0.321251004934311, 39.450138092041072 ], [ -0.321251004934311, 39.449859619140682 ], [ -0.320973008871078, 39.449859619140682 ], [ -0.320973008871078, 39.449584960937443 ], [ -0.320695012807846, 39.449584960937443 ], [ -0.320695012807846, 39.449306488037109 ], [ -0.320416003465539, 39.449306488037109 ], [ -0.320416003465539, 39.448749542236328 ], [ -0.320695012807846, 39.448749542236328 ], [ -0.320695012807846, 39.448471069335938 ], [ -0.321529000997543, 39.448471069335938 ], [ -0.321529000997543, 39.448627471923885 ], [ -0.321529000997543, 39.448749542236328 ], [ -0.322007000446263, 39.448749542236328 ], [ -0.322360992431584, 39.448749542236328 ], [ -0.322360992431584, 39.449028015136719 ], [ -0.323105990886688, 39.449028015136719 ], [ -0.324582993984222, 39.449028015136719 ], [ -0.324582993984222, 39.448749542236328 ], [ -0.324860990047455, 39.448749542236328 ], [ -0.324860990047455, 39.447639465332145 ], [ -0.324582993984222, 39.447639465332145 ], [ -0.324582993984222, 39.447082519531364 ], [ -0.32430499792099, 39.447082519531364 ], [ -0.32430499792099, 39.446529388427791 ], [ -0.324028998613301, 39.446529388427791 ], [ -0.324027001857758, 39.446250915527401 ], [ -0.323751002550068, 39.446250915527401 ], [ -0.323751002550068, 39.44597244262701 ], [ -0.322917014360371, 39.44597244262701 ], [ -0.322917014360371, 39.445693969726619 ], [ -0.320695012807846, 39.445693969726619 ], [ -0.320695012807846, 39.445415496826229 ], [ -0.320138007402306, 39.445415496826229 ], [ -0.320138007402306, 39.444328308105526 ], [ -0.320138007402306, 39.444026947021541 ], [ -0.320416003465539, 39.444026947021541 ], [ -0.320416003465539, 39.443748474121151 ], [ -0.320695012807846, 39.443748474121151 ], [ -0.320695012807846, 39.443195343017521 ], [ -0.320973008871078, 39.443195343017521 ], [ -0.320973008871078, 39.442916870117188 ], [ -0.323195010423603, 39.442916870117188 ], [ -0.323195010423603, 39.443195343017521 ], [ -0.325695008039474, 39.443195343017521 ], [ -0.325695008039474, 39.442916870117188 ], [ -0.325973004102707, 39.442916870117188 ], [ -0.325973004102707, 39.442798614502067 ], [ -0.325973004102707, 39.442638397216797 ], [ -0.326251000165939, 39.442638397216797 ], [ -0.326251000165939, 39.442359924316406 ], [ -0.326526999473515, 39.442359924316406 ], [ -0.326526999473515, 39.442085266113395 ], [ -0.326804995536747, 39.442081451416016 ], [ -0.326804995536747, 39.441806793213004 ], [ -0.32708299159998, 39.441806793213004 ], [ -0.32708299159998, 39.440139770507869 ], [ -0.327360987663212, 39.440139770507869 ], [ -0.327360987663212, 39.439861297607479 ], [ -0.327639013528824, 39.439861297607479 ], [ -0.327639013528824, 39.439304351806697 ], [ -0.327917009592056, 39.439304351806697 ], [ -0.327917009592056, 39.438472747802734 ], [ -0.328195005655232, 39.438472747802734 ], [ -0.328195005655232, 39.437637329101619 ], [ -0.328473001718464, 39.437637329101619 ], [ -0.328473001718464, 39.437362670898551 ], [ -0.328750997781697, 39.437362670898551 ], [ -0.328750997781697, 39.43708419799799 ], [ -0.329026997089386, 39.43708419799799 ], [ -0.329026997089386, 39.436527252197266 ], [ -0.329304993152618, 39.436527252197266 ], [ -0.329304993152618, 39.436248779296875 ], [ -0.329582989215851, 39.436248779296875 ], [ -0.329582989215851, 39.435974121093807 ], [ -0.329860985279083, 39.435974121093807 ], [ -0.329860985279083, 39.435695648193473 ], [ -0.330139011144524, 39.435695648193473 ], [ -0.330139011144524, 39.435417175293082 ], [ -0.33041700720787, 39.435417175293082 ], [ -0.33041700720787, 39.433471679687557 ], [ -0.330695003271103, 39.433471679687557 ], [ -0.330695003271103, 39.429862976074276 ], [ -0.33041700720787, 39.429862976074276 ], [ -0.33041700720787, 39.429584503173885 ], [ -0.330139011144524, 39.429584503173885 ], [ -0.330139011144524, 39.427082061767635 ], [ -0.33041700720787, 39.427082061767635 ], [ -0.33041700720787, 39.426807403564453 ], [ -0.330695003271103, 39.426807403564453 ], [ -0.330695003271103, 39.426528930664062 ], [ -0.330972999334335, 39.426528930664062 ], [ -0.330972999334335, 39.426250457763672 ], [ -0.331526994705143, 39.426250457763672 ], [ -0.331526994705143, 39.425971984863281 ], [ -0.334125012159291, 39.425971984863281 ], [ -0.334306001663208, 39.425971984863281 ], [ -0.334306001663208, 39.426250457763672 ], [ -0.336250007152501, 39.426250457763672 ], [ -0.336250007152501, 39.426528930664062 ], [ -0.336805999278965, 39.426528930664062 ], [ -0.336805999278965, 39.426807403564453 ], [ -0.33736199140543, 39.426807403564453 ], [ -0.33736199140543, 39.427082061767635 ], [ -0.338194012641907, 39.427082061767635 ], [ -0.338194012641907, 39.427360534668026 ], [ -0.339305996894836, 39.427360534668026 ], [ -0.339305996894836, 39.427639007568416 ], [ -0.340137988328877, 39.427639007568416 ], [ -0.340137988328877, 39.427917480468807 ], [ -0.340694010257721, 39.427917480468807 ], [ -0.340694010257721, 39.428195953369197 ], [ -0.341527998447361, 39.428195953369197 ], [ -0.341527998447361, 39.428470611572379 ], [ -0.342083990573826, 39.428470611572379 ], [ -0.342083990573826, 39.42874908447277 ], [ -0.343194007873535, 39.42874908447277 ], [ -0.343194007873535, 39.429027557373161 ], [ -0.344583988189697, 39.429027557373161 ], [ -0.344583988189697, 39.429306030273551 ], [ -0.344859987497273, 39.429306030273551 ], [ -0.344859987497273, 39.429584503173885 ], [ -0.345694005489349, 39.429584503173885 ], [ -0.345694005489349, 39.429862976074276 ], [ -0.346529006957951, 39.429862976074276 ], [ -0.346529006957951, 39.430137634277344 ], [ -0.347638010978642, 39.430137634277344 ], [ -0.347638010978642, 39.430416107177678 ], [ -0.348194986581802, 39.430416107177678 ], [ -0.348194986581802, 39.430694580078068 ], [ -0.34875100851059, 39.430694580078068 ], [ -0.34875100851059, 39.430973052978629 ], [ -0.349860996007862, 39.430973052978629 ], [ -0.349860996007862, 39.43125152587902 ], [ -0.350695013999882, 39.43125152587902 ], [ -0.350695013999882, 39.431526184082031 ], [ -0.350973010063115, 39.431526184082031 ], [ -0.350973010063115, 39.431804656982422 ], [ -0.351805001497269, 39.431804656982422 ], [ -0.351805001497269, 39.432083129882812 ], [ -0.352638989686966, 39.432083129882812 ], [ -0.352638989686966, 39.432361602783203 ], [ -0.353751003742218, 39.432361602783203 ], [ -0.353749006986561, 39.432640075683594 ], [ -0.354582995176258, 39.432640075683594 ], [ -0.354582995176258, 39.432918548583984 ], [ -0.354860991239491, 39.432918548583984 ], [ -0.354860991239491, 39.433193206787166 ], [ -0.355695009231567, 39.433193206787166 ], [ -0.355695009231567, 39.433471679687557 ], [ -0.356527000665665, 39.433471679687557 ], [ -0.356527000665665, 39.433750152587947 ], [ -0.357917010784035, 39.433750152587947 ], [ -0.357917010784035, 39.434028625488338 ], [ -0.358749002218246, 39.434028625488338 ], [ -0.358749002218246, 39.434307098388729 ], [ -0.359304994344654, 39.434307098388729 ], [ -0.359304994344654, 39.434581756591911 ], [ -0.360417991876545, 39.434581756591911 ], [ -0.360417991876545, 39.434860229492301 ], [ -0.360971003770715, 39.434860229492301 ], [ -0.360971003770715, 39.435138702392692 ], [ -0.362361997365952, 39.435138702392692 ], [ -0.362361997365952, 39.435417175293082 ], [ -0.363193988799992, 39.435417175293082 ], [ -0.363193988799992, 39.435695648193473 ], [ -0.365415990352631, 39.435695648193473 ], [ -0.365415990352631, 39.435417175293082 ], [ -0.365693986415863, 39.435417175293082 ], [ -0.365693986415863, 39.434860229492301 ], [ -0.365415990352631, 39.434860229492301 ], [ -0.365415990352631, 39.434581756591911 ], [ -0.362361997365952, 39.434581756591911 ], [ -0.362361997365952, 39.434307098388729 ], [ -0.361528009176254, 39.434307098388729 ], [ -0.361528009176254, 39.434028625488338 ], [ -0.360417991876545, 39.434028625488338 ], [ -0.360417991876545, 39.433750152587947 ], [ -0.359304994344654, 39.433750152587947 ], [ -0.359304994344654, 39.433471679687557 ], [ -0.358749002218246, 39.433471679687557 ], [ -0.358749002218246, 39.433193206787166 ], [ -0.357917010784035, 39.433193206787166 ], [ -0.357917010784035, 39.432918548583984 ], [ -0.35708299279213, 39.432914733886776 ], [ -0.35708299279213, 39.432640075683594 ], [ -0.356249004602432, 39.432640075683594 ], [ -0.356249004602432, 39.432361602783203 ], [ -0.355695009231567, 39.432361602783203 ], [ -0.355695009231567, 39.432083129882812 ], [ -0.355138987302723, 39.432083129882812 ], [ -0.355138987302723, 39.431804656982422 ], [ -0.354582995176258, 39.431804656982422 ], [ -0.354582995176258, 39.431526184082031 ], [ -0.353749006986561, 39.431526184082031 ], [ -0.353751003742218, 39.43125152587902 ], [ -0.352916985750198, 39.43125152587902 ], [ -0.352916985750198, 39.430973052978629 ], [ -0.352360993623734, 39.430973052978629 ], [ -0.352360993623734, 39.430694580078068 ], [ -0.351805001497269, 39.430694580078068 ], [ -0.351805001497269, 39.430416107177678 ], [ -0.350973010063115, 39.430416107177678 ], [ -0.350973010063115, 39.430137634277344 ], [ -0.349860996007862, 39.430137634277344 ], [ -0.349860996007862, 39.429862976074276 ], [ -0.34875100851059, 39.429862976074276 ], [ -0.34875100851059, 39.429584503173885 ], [ -0.34791699051857, 39.429584503173885 ], [ -0.34791699051857, 39.429306030273551 ], [ -0.347359985113144, 39.429306030273551 ], [ -0.347359985113144, 39.429027557373161 ], [ -0.347081989049911, 39.429027557373161 ], [ -0.347081989049911, 39.42874908447277 ], [ -0.346529006957951, 39.42874908447277 ], [ -0.346529006957951, 39.428470611572379 ], [ -0.345972001552582, 39.428470611572379 ], [ -0.345972001552582, 39.428195953369197 ], [ -0.344583988189697, 39.428195953369197 ], [ -0.344583988189697, 39.427917480468807 ], [ -0.34375, 39.427917480468807 ], [ -0.34375, 39.427639007568416 ], [ -0.343194007873535, 39.427639007568416 ], [ -0.343194007873535, 39.427360534668026 ], [ -0.342359989881516, 39.427360534668026 ], [ -0.342359989881516, 39.427082061767635 ], [ -0.341527998447361, 39.427082061767635 ], [ -0.341527998447361, 39.426807403564453 ], [ -0.340694010257721, 39.426807403564453 ], [ -0.340694010257721, 39.426528930664062 ], [ -0.339861989021301, 39.426528930664062 ], [ -0.339861989021301, 39.426250457763672 ], [ -0.339028000831604, 39.426250457763672 ], [ -0.339028000831604, 39.425971984863281 ], [ -0.338472008705139, 39.425971984863281 ], [ -0.338472008705139, 39.425693511962891 ], [ -0.337915986776352, 39.425693511962891 ], [ -0.337915986776352, 39.4254150390625 ], [ -0.33736199140543, 39.4254150390625 ], [ -0.33736199140543, 39.425140380859489 ], [ -0.336805999278965, 39.425140380859489 ], [ -0.336805999278965, 39.424861907959098 ], [ -0.335972011089268, 39.424861907959098 ], [ -0.335972011089268, 39.424583435058707 ], [ -0.335745990276337, 39.424583435058707 ], [ -0.335415005683899, 39.424583435058707 ], [ -0.335415005683899, 39.424304962158146 ], [ -0.335139989852905, 39.424304962158146 ], [ -0.335139989852905, 39.424026489257756 ], [ -0.334861993789673, 39.424026489257756 ], [ -0.334861993789673, 39.423751831054744 ], [ -0.33458399772644, 39.423751831054744 ], [ -0.33458399772644, 39.423473358154354 ], [ -0.334306001663208, 39.423473358154354 ], [ -0.334306001663208, 39.420139312744141 ], [ -0.334026992321014, 39.420139312744141 ], [ -0.334026992321014, 39.419303894042969 ], [ -0.333748996257782, 39.419303894042969 ], [ -0.333748996257782, 39.418010711669865 ], [ -0.333748996257782, 39.416805267334041 ], [ -0.33347100019455, 39.416805267334041 ], [ -0.33347100019455, 39.416526794433707 ], [ -0.333297997713032, 39.416526794433707 ], [ -0.333193004131203, 39.416526794433707 ], [ -0.333193004131203, 39.416179656982479 ], [ -0.333193004131203, 39.414859771728572 ], [ -0.33291798830021, 39.414859771728572 ], [ -0.33291798830021, 39.413749694824219 ], [ -0.332639992237034, 39.413749694824219 ], [ -0.332639992237034, 39.412639617920036 ], [ -0.33236101269722, 39.412639617920036 ], [ -0.33236101269722, 39.411804199218864 ], [ -0.332082986831608, 39.411804199218864 ], [ -0.332082986831608, 39.41069412231451 ], [ -0.331804990768376, 39.41069412231451 ], [ -0.331804990768376, 39.409862518310547 ], [ -0.331526994705143, 39.409862518310547 ], [ -0.331526994705143, 39.409027099609432 ], [ -0.331248998641911, 39.409027099609432 ], [ -0.331248998641911, 39.407917022705078 ], [ -0.330971002578735, 39.407917022705078 ], [ -0.330972999334335, 39.406806945800895 ], [ -0.330695003271103, 39.406806945800895 ], [ -0.330695003271103, 39.405693054199332 ], [ -0.33041700720787, 39.405693054199332 ], [ -0.33041700720787, 39.404582977294979 ], [ -0.330139011144524, 39.404582977294979 ], [ -0.330139011144524, 39.403472900390625 ], [ -0.329860985279083, 39.403472900390625 ], [ -0.329860985279083, 39.402362823486442 ], [ -0.329582989215851, 39.402362823486442 ], [ -0.329582989215851, 39.401248931884766 ], [ -0.329304993152618, 39.401248931884766 ], [ -0.329304993152618, 39.400138854980582 ], [ -0.329026997089386, 39.400138854980582 ], [ -0.329026997089386, 39.399028778076229 ], [ -0.328750997781697, 39.399028778076229 ], [ -0.328750997781697, 39.398193359375057 ], [ -0.328473001718464, 39.398193359375057 ], [ -0.328473001718464, 39.397361755371094 ], [ -0.328195005655232, 39.397361755371094 ], [ -0.328195005655232, 39.396251678466911 ], [ -0.327917009592056, 39.396251678466911 ], [ -0.327917009592056, 39.395416259765568 ], [ -0.327639013528824, 39.395416259765568 ], [ -0.327639013528824, 39.394584655761776 ], [ -0.327360987663212, 39.394584655761776 ], [ -0.327360987663212, 39.39347076416027 ], [ -0.32708299159998, 39.39347076416027 ], [ -0.32708299159998, 39.392639160156307 ], [ -0.326804995536747, 39.392639160156307 ], [ -0.326804995536747, 39.391803741455135 ], [ -0.326526999473515, 39.391803741455135 ], [ -0.326526999473515, 39.390972137451172 ], [ -0.326251000165939, 39.390972137451172 ], [ -0.326251000165939, 39.390140533447379 ], [ -0.325973004102707, 39.390140533447379 ], [ -0.325973004102707, 39.389305114746037 ], [ -0.325695008039474, 39.389305114746037 ], [ -0.325695008039474, 39.388195037841854 ], [ -0.325417011976242, 39.388195037841854 ], [ -0.325417011976242, 39.387359619140739 ], [ -0.325138986110687, 39.387359619140739 ], [ -0.325138986110687, 39.386528015136776 ], [ -0.324860990047455, 39.386528015136776 ], [ -0.324860990047455, 39.385692596435604 ], [ -0.324582993984222, 39.385692596435604 ], [ -0.324582993984222, 39.384860992431641 ], [ -0.32430499792099, 39.384860992431641 ], [ -0.32430499792099, 39.384029388427848 ], [ -0.324028998613301, 39.384029388427848 ], [ -0.324027001857758, 39.383193969726676 ], [ -0.323751002550068, 39.383193969726676 ], [ -0.323751002550068, 39.382362365722713 ], [ -0.323473006486836, 39.382362365722713 ], [ -0.323473006486836, 39.381805419921932 ], [ -0.323195010423603, 39.381805419921932 ], [ -0.323195010423603, 39.380973815917969 ], [ -0.322917014360371, 39.380973815917969 ], [ -0.322917014360371, 39.380138397216854 ], [ -0.322638988494816, 39.380138397216854 ], [ -0.322638988494816, 39.379306793212891 ], [ -0.322360992431584, 39.379306793212891 ], [ -0.322360992431584, 39.378471374511719 ], [ -0.322082996368351, 39.378471374511719 ], [ -0.322082996368351, 39.377639770507926 ], [ -0.321806997060776, 39.377639770507926 ], [ -0.321806997060776, 39.377082824707145 ], [ -0.321529000997543, 39.377082824707145 ], [ -0.321529000997543, 39.376251220703182 ], [ -0.321251004934311, 39.376251220703182 ], [ -0.321251004934311, 39.37541580200201 ], [ -0.320973008871078, 39.37541580200201 ], [ -0.320973008871078, 39.374584197998047 ], [ -0.320695012807846, 39.374584197998047 ], [ -0.320695012807846, 39.373748779296932 ], [ -0.320416003465539, 39.373748779296932 ], [ -0.320416003465539, 39.372917175292969 ], [ -0.320138007402306, 39.372917175292969 ], [ -0.320138007402306, 39.372081756591797 ], [ -0.319860011339131, 39.372081756591797 ], [ -0.319860011339131, 39.371528625488395 ], [ -0.319635003805104, 39.371528625488395 ], [ -0.319622993469181, 39.371356964111385 ], [ -0.319581985473633, 39.370693206787223 ], [ -0.319382011890411, 39.370693206787223 ], [ -0.319306999444905, 39.370693206787223 ], [ -0.319306999444905, 39.370441436767635 ], [ -0.319306999444905, 39.36986160278326 ], [ -0.31912899017334, 39.36986160278326 ], [ -0.319029003381672, 39.36986160278326 ], [ -0.319029003381672, 39.369529724121094 ], [ -0.319029003381672, 39.369026184082088 ], [ -0.318816989660263, 39.368999481201115 ], [ -0.318749994039479, 39.368835449218807 ], [ -0.318749994039479, 39.368194580078125 ], [ -0.318471997976246, 39.368194580078125 ], [ -0.318471997976246, 39.367362976074332 ], [ -0.318194001913071, 39.367362976074332 ], [ -0.318194001913071, 39.366806030273381 ], [ -0.317916005849838, 39.366806030273381 ], [ -0.317916005849838, 39.365970611572266 ], [ -0.317638009786606, 39.365970611572266 ], [ -0.317638009786606, 39.365139007568473 ], [ -0.317360013723373, 39.365139007568473 ], [ -0.317360013723373, 39.36430740356451 ], [ -0.317084014415627, 39.36430740356451 ], [ -0.317084014415627, 39.363471984863338 ], [ -0.316805988550186, 39.363471984863338 ], [ -0.316805988550186, 39.362640380859375 ], [ -0.316527992486954, 39.362640380859375 ], [ -0.316527992486954, 39.361804962158203 ], [ -0.316249996423721, 39.361804962158203 ], [ -0.316249996423721, 39.361251831054801 ], [ -0.315972000360489, 39.361251831054801 ], [ -0.315972000360489, 39.360416412353459 ], [ -0.315694004297256, 39.360416412353459 ], [ -0.315694004297256, 39.359584808349666 ], [ -0.315416008234024, 39.359584808349666 ], [ -0.315416008234024, 39.358749389648551 ], [ -0.315138012170678, 39.358749389648551 ], [ -0.315138012170678, 39.358196258544979 ], [ -0.314862012863159, 39.358196258544979 ], [ -0.314862012863159, 39.357639312744197 ], [ -0.314583986997548, 39.357639312744197 ], [ -0.314583986997548, 39.356803894043026 ], [ -0.314305990934315, 39.356803894043026 ], [ -0.314305990934315, 39.356250762939453 ], [ -0.314027994871083, 39.356250762939453 ], [ -0.314027994871083, 39.355415344238281 ], [ -0.31374999880785, 39.355415344238281 ], [ -0.31374999880785, 39.354862213134879 ], [ -0.313472002744618, 39.354862213134879 ], [ -0.313472002744618, 39.354305267333928 ], [ -0.313194006681385, 39.354305267333928 ], [ -0.313194006681385, 39.353473663330135 ], [ -0.31291601061821, 39.353473663330135 ], [ -0.31291601061821, 39.352916717529411 ], [ -0.312638014554977, 39.352916717529411 ], [ -0.312638014554977, 39.352085113525391 ], [ -0.312361985445023, 39.352085113525391 ], [ -0.312361985445023, 39.351528167724666 ], [ -0.31208398938179, 39.351528167724666 ], [ -0.31208398938179, 39.350971221923885 ], [ -0.311805993318558, 39.350971221923885 ], [ -0.311805993318558, 39.350139617919922 ], [ -0.311527997255325, 39.350139617919922 ], [ -0.311527997255325, 39.349582672119141 ], [ -0.311250001192093, 39.349582672119141 ], [ -0.311250001192093, 39.349029541015739 ], [ -0.31097200512886, 39.349029541015739 ], [ -0.31097200512886, 39.348472595214957 ], [ -0.310694009065628, 39.348472595214957 ], [ -0.310694009065628, 39.347637176513615 ], [ -0.310416013002396, 39.347637176513615 ], [ -0.310416013002396, 39.347084045410213 ], [ -0.310140013694706, 39.347084045410213 ], [ -0.310140013694706, 39.346527099609489 ], [ -0.309861987829152, 39.346527099609489 ], [ -0.309861987829152, 39.345973968505859 ], [ -0.309583991765919, 39.345973968505859 ], [ -0.309583991765919, 39.345138549804744 ], [ -0.309305995702687, 39.345138549804744 ], [ -0.309305995702687, 39.344581604003963 ], [ -0.309027999639454, 39.344581604003963 ], [ -0.309027999639454, 39.344028472900391 ], [ -0.308750003576222, 39.344028472900391 ], [ -0.308750003576222, 39.343471527099609 ], [ -0.308472007512989, 39.343471527099609 ], [ -0.308472007512989, 39.342639923095817 ], [ -0.308192998170853, 39.342639923095817 ], [ -0.308192998170853, 39.342082977295036 ], [ -0.307918012142181, 39.342082977295036 ], [ -0.307918012142181, 39.341526031494084 ], [ -0.307639986276627, 39.341526031494084 ], [ -0.307639986276627, 39.341335296630803 ], [ -0.307639986276627, 39.340972900390682 ], [ -0.307494014501515, 39.340972900390682 ], [ -0.307361990213394, 39.340972900390682 ], [ -0.307361990213394, 39.340644836425895 ], [ -0.307361990213394, 39.340415954589901 ], [ -0.307083994150162, 39.340415954589901 ], [ -0.307083994150162, 39.339958190917969 ], [ -0.307083994150162, 39.339584350585938 ], [ -0.306930989027023, 39.339584350585938 ], [ -0.306805014610234, 39.339584350585938 ], [ -0.306805014610234, 39.339271545410213 ], [ -0.306805014610234, 39.339027404785213 ], [ -0.306526988744736, 39.339027404785213 ], [ -0.306526988744736, 39.338584899902344 ], [ -0.306526988744736, 39.338470458984432 ], [ -0.306248992681503, 39.338470458984432 ], [ -0.306248992681503, 39.337917327880859 ], [ -0.305970996618271, 39.337917327880859 ], [ -0.305970996618271, 39.337207794189453 ], [ -0.305970996618271, 39.337081909179688 ], [ -0.305693000555038, 39.337081909179688 ], [ -0.305693000555038, 39.336528778076286 ], [ -0.30541801452631, 39.336528778076286 ], [ -0.30541801452631, 39.335971832275504 ], [ -0.305139005184174, 39.335971832275504 ], [ -0.305139005184174, 39.335414886474723 ], [ -0.304861009120941, 39.335414886474723 ], [ -0.304861009120941, 39.33458328247076 ], [ -0.304583013057709, 39.33458328247076 ], [ -0.304583013057709, 39.334026336669979 ], [ -0.304304987192097, 39.334026336669979 ], [ -0.304304987192097, 39.333473205566406 ], [ -0.304026991128865, 39.333473205566406 ], [ -0.304026991128865, 39.332916259765625 ], [ -0.303748995065632, 39.332916259765625 ], [ -0.303748995065632, 39.332168579101619 ], [ -0.303748995065632, 39.332084655761662 ], [ -0.3034709990024, 39.332084655761662 ], [ -0.3034709990024, 39.331527709960938 ], [ -0.303194999694824, 39.331527709960938 ], [ -0.303194999694824, 39.330970764160156 ], [ -0.302917003631592, 39.330970764160156 ], [ -0.302917003631592, 39.330417633056754 ], [ -0.302639007568359, 39.330417633056754 ], [ -0.302639007568359, 39.329963684082145 ], [ -0.302639007568359, 39.329582214355582 ], [ -0.302361011505013, 39.329582214355582 ], [ -0.302361011505013, 39.329414367675724 ], [ -0.302361011505013, 39.32902908325201 ], [ -0.302166998386383, 39.32902908325201 ], [ -0.302082985639572, 39.32902908325201 ], [ -0.302082985639572, 39.328853607177791 ], [ -0.302082985639572, 39.328472137451229 ], [ -0.301887005567494, 39.328472137451229 ], [ -0.30180498957634, 39.328472137451229 ], [ -0.30180498957634, 39.328304290771541 ], [ -0.30180498957634, 39.327915191650447 ], [ -0.301591008901539, 39.327884674072322 ], [ -0.301526993513107, 39.327751159667969 ], [ -0.301526993513107, 39.327083587646484 ], [ -0.301248997449875, 39.327083587646484 ], [ -0.301248997449875, 39.326526641845703 ], [ -0.300972998142186, 39.326526641845703 ], [ -0.300972998142186, 39.325973510742301 ], [ -0.300695002078953, 39.325973510742301 ], [ -0.300695002078953, 39.325416564941349 ], [ -0.300417006015721, 39.325416564941349 ], [ -0.300417006015721, 39.324584960937557 ], [ -0.300139009952545, 39.324584960937557 ], [ -0.300139009952545, 39.324028015136832 ], [ -0.299861013889313, 39.324028015136832 ], [ -0.299861013889313, 39.323471069336051 ], [ -0.299582988023701, 39.323471069336051 ], [ -0.299582988023701, 39.322917938232479 ], [ -0.299304991960469, 39.322917938232479 ], [ -0.299304991960469, 39.322082519531307 ], [ -0.299028992652893, 39.322082519531307 ], [ -0.299028992652893, 39.321529388427734 ], [ -0.298750996589661, 39.321529388427734 ], [ -0.298750996589661, 39.320972442626953 ], [ -0.298473000526428, 39.320972442626953 ], [ -0.298473000526428, 39.320415496826172 ], [ -0.298195004463196, 39.320415496826172 ], [ -0.298195004463196, 39.319583892822379 ], [ -0.297917008399963, 39.319583892822379 ], [ -0.297917008399963, 39.319026947021428 ], [ -0.297639012336731, 39.319026947021428 ], [ -0.297639012336731, 39.318473815918026 ], [ -0.297360986471176, 39.318473815918026 ], [ -0.297360986471176, 39.317916870117301 ], [ -0.297082990407944, 39.317916870117301 ], [ -0.297082990407944, 39.31735992431652 ], [ -0.296804994344711, 39.31735992431652 ], [ -0.296804994344711, 39.316806793212947 ], [ -0.296528995037022, 39.316806793212947 ], [ -0.296528995037022, 39.316249847412166 ], [ -0.29625099897379, 39.316249847412166 ], [ -0.29625099897379, 39.315418243408203 ], [ -0.295973002910557, 39.315418243408203 ], [ -0.295973002910557, 39.314861297607422 ], [ -0.295695006847325, 39.314861297607422 ], [ -0.295695006847325, 39.314304351806641 ], [ -0.295417010784092, 39.314304351806641 ], [ -0.295417010784092, 39.31402587890625 ], [ -0.29513901472086, 39.31402587890625 ], [ -0.29513901472086, 39.313751220703239 ], [ -0.295417010784092, 39.313751220703239 ], [ -0.295417010784092, 39.313472747802848 ], [ -0.29513901472086, 39.313472747802848 ], [ -0.29513901472086, 39.312915802001896 ], [ -0.294860988855305, 39.312915802001896 ], [ -0.294860988855305, 39.312362670898494 ], [ -0.294582009315491, 39.312362670898494 ], [ -0.294582009315491, 39.311805725097713 ], [ -0.294306993484497, 39.311805725097713 ], [ -0.294306993484497, 39.311248779296989 ], [ -0.294028997421265, 39.311248779296989 ], [ -0.294028997421265, 39.310695648193359 ], [ -0.293751001358032, 39.310695648193359 ], [ -0.293751001358032, 39.309581756591854 ], [ -0.2934730052948, 39.309581756591854 ], [ -0.2934730052948, 39.309028625488281 ], [ -0.293195009231567, 39.309028625488281 ], [ -0.293195009231567, 39.308750152587891 ], [ -0.293195009231567, 39.308143615722713 ], [ -0.293195009231567, 39.307918548584098 ], [ -0.292915999889374, 39.307914733886719 ], [ -0.292915999889374, 39.307083129882926 ], [ -0.292638003826028, 39.307083129882926 ], [ -0.292638003826028, 39.306526184081974 ], [ -0.292360007762795, 39.306526184081974 ], [ -0.292360007762795, 39.306251525878963 ], [ -0.292084991931858, 39.306251525878963 ], [ -0.292084991931858, 39.305973052978572 ], [ -0.291806995868626, 39.305973052978572 ], [ -0.291806995868626, 39.305694580078182 ], [ -0.291527986526432, 39.305694580078182 ], [ -0.291527986526432, 39.305416107177791 ], [ -0.2912499904632, 39.305416107177791 ], [ -0.2912499904632, 39.305137634277457 ], [ -0.290971994399968, 39.305137634277457 ], [ -0.290971994399968, 39.304862976074219 ], [ -0.29041600227356, 39.304862976074219 ], [ -0.29041600227356, 39.304584503173828 ], [ -0.290138006210327, 39.304584503173828 ], [ -0.290138006210327, 39.304027557373104 ], [ -0.289860010147095, 39.304027557373104 ], [ -0.289860010147095, 39.303195953369084 ], [ -0.289584010839349, 39.303195953369084 ], [ -0.289584010839349, 39.30291748046875 ], [ -0.289306014776116, 39.30291748046875 ], [ -0.289306014776116, 39.302639007568359 ], [ -0.289027988910675, 39.302639007568359 ], [ -0.289027988910675, 39.302360534667969 ], [ -0.288749992847443, 39.302360534667969 ], [ -0.288749992847443, 39.300693511963004 ], [ -0.28847199678421, 39.300693511963004 ], [ -0.28847199678421, 39.300140380859432 ], [ -0.288194000720978, 39.300140380859432 ], [ -0.288194000720978, 39.297637939453182 ], [ -0.287916004657745, 39.297637939453182 ], [ -0.287916004657745, 39.297359466552791 ], [ -0.287638008594513, 39.297359466552791 ], [ -0.287638008594513, 39.297084808349553 ], [ -0.287084013223648, 39.297084808349553 ], [ -0.287084013223648, 39.296806335449162 ], [ -0.286527991294804, 39.296806335449162 ], [ -0.286527991294804, 39.296527862548828 ], [ -0.286249995231572, 39.296527862548828 ], [ -0.286249995231572, 39.296249389648438 ], [ -0.285971999168339, 39.296249389648438 ], [ -0.285971999168339, 39.295696258545036 ], [ -0.285694003105107, 39.295696258545036 ], [ -0.285694003105107, 39.295417785644645 ], [ -0.285416007041874, 39.295417785644645 ], [ -0.285416007041874, 39.294303894043082 ], [ -0.285140007734299, 39.294303894043082 ], [ -0.285140007734299, 39.29375076293951 ], [ -0.284862011671066, 39.29375076293951 ], [ -0.284862011671066, 39.292915344238338 ], [ -0.284583985805511, 39.292915344238338 ], [ -0.284583985805511, 39.292362213134766 ], [ -0.284305989742279, 39.292362213134766 ], [ -0.284305989742279, 39.292083740234375 ], [ -0.284027993679047, 39.292083740234375 ], [ -0.284027993679047, 39.291805267333984 ], [ -0.283749997615814, 39.291805267333984 ], [ -0.283749997615814, 39.291526794433594 ], [ -0.283472001552582, 39.291526794433594 ], [ -0.283472001552582, 39.290973663330192 ], [ -0.283194005489349, 39.290973663330192 ], [ -0.283194005489349, 39.290695190429631 ], [ -0.282916009426117, 39.290695190429631 ], [ -0.282916009426117, 39.290138244628906 ], [ -0.282640010118428, 39.290138244628906 ], [ -0.282640010118428, 39.289585113525447 ], [ -0.282362014055195, 39.289585113525447 ], [ -0.282362014055195, 39.289306640625114 ], [ -0.28208398818964, 39.289306640625114 ], [ -0.28208398818964, 39.289028167724723 ], [ -0.281805992126408, 39.289028167724723 ], [ -0.281805992126408, 39.288749694824332 ], [ -0.281527996063176, 39.288749694824332 ], [ -0.281527996063176, 39.288471221923942 ], [ -0.28125, 39.288471221923942 ], [ -0.28125, 39.287918090820369 ], [ -0.28097099065775, 39.287918090820369 ], [ -0.28097099065775, 39.287082672119197 ], [ -0.280692994594574, 39.287082672119197 ], [ -0.280692994594574, 39.286804199218807 ], [ -0.280418008565903, 39.286804199218807 ], [ -0.280418008565903, 39.286529541015625 ], [ -0.28014001250267, 39.286529541015625 ], [ -0.28014001250267, 39.286251068115234 ], [ -0.279861986637115, 39.286251068115234 ], [ -0.279861986637115, 39.285972595214844 ], [ -0.279583990573883, 39.285972595214844 ], [ -0.279583990573883, 39.285415649414062 ], [ -0.279305011033955, 39.285415649414062 ], [ -0.279305011033955, 39.285137176513672 ], [ -0.279026985168457, 39.285137176513672 ], [ -0.279026985168457, 39.284305572509709 ], [ -0.278748989105225, 39.284305572509709 ], [ -0.278748989105225, 39.283473968505916 ], [ -0.278470993041992, 39.283473968505916 ], [ -0.278470993041992, 39.282917022705192 ], [ -0.278196007013264, 39.282917022705192 ], [ -0.27819299697876, 39.282638549804801 ], [ -0.27791699767107, 39.282638549804801 ], [ -0.27791699767107, 39.28208160400402 ], [ -0.277639001607895, 39.28208160400402 ], [ -0.277639001607895, 39.281806945800838 ], [ -0.27708300948143, 39.281806945800838 ], [ -0.27708300948143, 39.281528472900447 ], [ -0.276526987552586, 39.281528472900447 ], [ -0.276526987552586, 39.28125 ], [ -0.276248991489354, 39.28125 ], [ -0.276248991489354, 39.280139923095703 ], [ -0.275970995426121, 39.280139923095703 ], [ -0.275970995426121, 39.279861450195312 ], [ -0.275694996118546, 39.279861450195312 ], [ -0.275694996118546, 39.279582977294922 ], [ -0.275417000055313, 39.279582977294922 ], [ -0.275417000055313, 39.279251098632756 ], [ -0.275417000055313, 39.278751373291129 ], [ -0.275139003992081, 39.278751373291129 ], [ -0.275139003992081, 39.278194427490348 ], [ -0.274861007928848, 39.278194427490348 ], [ -0.274861007928848, 39.277915954589787 ], [ -0.274583011865502, 39.277915954589787 ], [ -0.274583011865502, 39.277637481689396 ], [ -0.274304986000061, 39.277637481689396 ], [ -0.274304986000061, 39.277362823486385 ], [ -0.274026989936829, 39.277362823486385 ], [ -0.274026989936829, 39.276805877685604 ], [ -0.273750990629139, 39.276805877685604 ], [ -0.273748993873596, 39.27652740478527 ], [ -0.273472994565907, 39.27652740478527 ], [ -0.273472994565907, 39.276248931884879 ], [ -0.273194998502674, 39.276248931884879 ], [ -0.273194998502674, 39.275417327880916 ], [ -0.272917002439442, 39.275417327880916 ], [ -0.272917002439442, 39.274860382080135 ], [ -0.27263900637621, 39.274860382080135 ], [ -0.27263900637621, 39.274307250976562 ], [ -0.272361010313034, 39.274307250976562 ], [ -0.272361010313034, 39.273750305175781 ], [ -0.272083014249802, 39.273750305175781 ], [ -0.272083014249802, 39.273471832275391 ], [ -0.27180498838419, 39.273471832275391 ], [ -0.27180498838419, 39.272640228271598 ], [ -0.271526992320958, 39.272640228271598 ], [ -0.271526992320958, 39.272083282470817 ], [ -0.271250993013382, 39.272083282470817 ], [ -0.271250993013382, 39.271526336669865 ], [ -0.27097299695015, 39.271526336669865 ], [ -0.27097299695015, 39.270973205566463 ], [ -0.270695000886917, 39.270973205566463 ], [ -0.270695000886917, 39.270694732666072 ], [ -0.270417004823685, 39.270694732666072 ], [ -0.270417004823685, 39.270137786865348 ], [ -0.270139008760452, 39.270137786865348 ], [ -0.270139008760452, 39.269584655761719 ], [ -0.26986101269722, 39.269584655761719 ], [ -0.26986101269722, 39.269306182861328 ], [ -0.269582986831665, 39.269306182861328 ], [ -0.269582986831665, 39.268749237060604 ], [ -0.269304990768433, 39.268749237060604 ], [ -0.269304990768433, 39.268196105956974 ], [ -0.269028991460743, 39.268196105956974 ], [ -0.269028991460743, 39.26763916015625 ], [ -0.268750995397511, 39.26763916015625 ], [ -0.268750995397511, 39.267082214355469 ], [ -0.268472999334278, 39.267082214355469 ], [ -0.268472999334278, 39.266529083252067 ], [ -0.268195003271046, 39.266529083252067 ], [ -0.268195003271046, 39.266250610351676 ], [ -0.267917007207814, 39.266250610351676 ], [ -0.267917007207814, 39.265972137451286 ], [ -0.267639011144581, 39.265972137451286 ], [ -0.267639011144581, 39.265415191650504 ], [ -0.267360001802444, 39.265415191650504 ], [ -0.267360001802444, 39.265140533447322 ], [ -0.267082005739212, 39.265140533447322 ], [ -0.267082005739212, 39.264583587646541 ], [ -0.26680400967598, 39.264583587646541 ], [ -0.26680400967598, 39.264305114746151 ], [ -0.266528993844986, 39.264305114746151 ], [ -0.266528993844986, 39.263748168945426 ], [ -0.266250997781754, 39.263748168945426 ], [ -0.266250997781754, 39.263473510742188 ], [ -0.265973001718521, 39.263473510742188 ], [ -0.265973001718521, 39.262916564941406 ], [ -0.265693992376328, 39.262916564941406 ], [ -0.265693992376328, 39.262638092041072 ], [ -0.265415996313095, 39.262638092041072 ], [ -0.265415996313095, 39.262084960937443 ], [ -0.265138000249863, 39.262084960937443 ], [ -0.265138000249863, 39.261528015136719 ], [ -0.264860004186517, 39.261528015136719 ], [ -0.264860004186517, 39.260971069335938 ], [ -0.264584988355523, 39.260971069335938 ], [ -0.264584988355523, 39.260692596435547 ], [ -0.264306008815765, 39.260692596435547 ], [ -0.264306008815765, 39.260139465332145 ], [ -0.264028012752533, 39.260139465332145 ], [ -0.264028012752533, 39.259582519531364 ], [ -0.263749986886921, 39.259582519531364 ], [ -0.263749986886921, 39.259304046630973 ], [ -0.263471990823689, 39.259304046630973 ], [ -0.263471990823689, 39.259029388427791 ], [ -0.263193994760456, 39.259029388427791 ], [ -0.263193994760456, 39.25847244262701 ], [ -0.262915998697224, 39.25847244262701 ], [ -0.262915998697224, 39.257915496826229 ], [ -0.262638002634048, 39.257915496826229 ], [ -0.262638002634048, 39.257083892822266 ], [ -0.262360006570816, 39.257083892822266 ], [ -0.262360006570816, 39.256805419921875 ], [ -0.262084007263184, 39.256805419921875 ], [ -0.262084007263184, 39.256248474121151 ], [ -0.261806011199837, 39.256248474121151 ], [ -0.261806011199837, 39.255973815918082 ], [ -0.261527985334396, 39.255973815918082 ], [ -0.261527985334396, 39.255695343017521 ], [ -0.261357009410858, 39.255695343017521 ], [ -0.261249989271164, 39.255695343017521 ], [ -0.261249989271164, 39.255500793457088 ], [ -0.261249989271164, 39.254859924316406 ], [ -0.260971993207932, 39.254859924316406 ], [ -0.260971993207932, 39.254028320312614 ], [ -0.260693997144699, 39.254028320312614 ], [ -0.260693997144699, 39.253471374511832 ], [ -0.260416001081467, 39.253471374511832 ], [ -0.260416001081467, 39.252639770507869 ], [ -0.260138005018234, 39.252639770507869 ], [ -0.260138005018234, 39.251251220703125 ], [ -0.259862005710545, 39.251251220703125 ], [ -0.259862005710545, 39.250694274902344 ], [ -0.259584009647369, 39.250694274902344 ], [ -0.259584009647369, 39.250137329101562 ], [ -0.259306013584137, 39.250137329101562 ], [ -0.259306013584137, 39.249584197998161 ], [ -0.259027987718525, 39.249584197998161 ], [ -0.259027987718525, 39.249027252197209 ], [ -0.258749991655293, 39.249027252197209 ], [ -0.258749991655293, 39.248748779296875 ], [ -0.25847199559206, 39.248748779296875 ], [ -0.25847199559206, 39.248195648193416 ], [ -0.258193999528828, 39.248195648193416 ], [ -0.258193999528828, 39.247917175293082 ], [ -0.257916003465596, 39.247917175293082 ], [ -0.257916003465596, 39.247638702392692 ], [ -0.25764000415802, 39.247638702392692 ], [ -0.25764000415802, 39.247360229492301 ], [ -0.257362008094788, 39.247360229492301 ], [ -0.257362008094788, 39.246807098388729 ], [ -0.257084012031555, 39.246807098388729 ], [ -0.257084012031555, 39.246528625488338 ], [ -0.256805986166, 39.246528625488338 ], [ -0.256805986166, 39.246250152587947 ], [ -0.256527990102768, 39.246250152587947 ], [ -0.256527990102768, 39.245693206787166 ], [ -0.256249994039536, 39.245693206787166 ], [ -0.256249994039536, 39.244861602783203 ], [ -0.255971997976303, 39.244861602783203 ], [ -0.255971997976303, 39.244304656982422 ], [ -0.255694001913071, 39.244304656982422 ], [ -0.255694001913071, 39.24375152587902 ], [ -0.255418002605381, 39.24375152587902 ], [ -0.255418002605381, 39.242916107177678 ], [ -0.255140006542149, 39.242916107177678 ], [ -0.255140006542149, 39.242362976074276 ], [ -0.254862010478917, 39.242362976074276 ], [ -0.254862010478917, 39.241806030273494 ], [ -0.254584014415684, 39.241806030273494 ], [ -0.254584014415684, 39.24124908447277 ], [ -0.254305988550129, 39.24124908447277 ], [ -0.254305988550129, 39.240695953369141 ], [ -0.254027992486897, 39.240695953369141 ], [ -0.254027992486897, 39.240139007568416 ], [ -0.253749996423664, 39.240139007568416 ], [ -0.253749996423664, 39.239860534668026 ], [ -0.253470987081471, 39.239860534668026 ], [ -0.253470987081471, 39.239582061767635 ], [ -0.253192991018238, 39.239582061767635 ], [ -0.253192991018238, 39.239028930664062 ], [ -0.252918004989624, 39.239028930664062 ], [ -0.252918004989624, 39.238471984863281 ], [ -0.252640008926392, 39.238471984863281 ], [ -0.252640008926392, 39.238193511962891 ], [ -0.252362012863159, 39.238193511962891 ], [ -0.252362012863159, 39.237640380859489 ], [ -0.252083003520852, 39.237640380859489 ], [ -0.252083003520852, 39.237083435058707 ], [ -0.251805007457619, 39.237083435058707 ], [ -0.251805007457619, 39.236804962158317 ], [ -0.251527011394444, 39.236804962158317 ], [ -0.251527011394444, 39.235973358154354 ], [ -0.251248985528946, 39.235973358154354 ], [ -0.251248985528946, 39.235416412353572 ], [ -0.250970989465714, 39.235416412353572 ], [ -0.250970989465714, 39.235137939453239 ], [ -0.250694990158024, 39.235137939453239 ], [ -0.250694990158024, 39.234584808349609 ], [ -0.250416994094792, 39.234584808349609 ], [ -0.250416994094792, 39.234027862548885 ], [ -0.250138998031559, 39.234027862548885 ], [ -0.250138998031559, 39.233749389648494 ], [ -0.249861001968384, 39.233749389648494 ], [ -0.249861001968384, 39.233196258544865 ], [ -0.249583005905151, 39.233196258544865 ], [ -0.249583005905151, 39.232639312744141 ], [ -0.249304994940701, 39.232639312744141 ], [ -0.249304994940701, 39.232082366943359 ], [ -0.249026998877468, 39.232082366943359 ], [ -0.249026998877468, 39.231250762939567 ], [ -0.248749002814293, 39.231250762939567 ], [ -0.248749002814293, 39.230693817138786 ], [ -0.24847300350666, 39.230693817138786 ], [ -0.24847300350666, 39.229862213134822 ], [ -0.248195007443428, 39.229862213134822 ], [ -0.248195007443428, 39.229305267334041 ], [ -0.247639000415802, 39.229305267334041 ], [ -0.247639000415802, 39.229026794433651 ], [ -0.24736100435257, 39.229026794433651 ], [ -0.24736100435257, 39.228748321533317 ], [ -0.247082993388176, 39.228748321533317 ], [ -0.247082993388176, 39.228195190429688 ], [ -0.246804997324944, 39.228195190429688 ], [ -0.246804997324944, 39.227638244628963 ], [ -0.246527001261711, 39.227638244628963 ], [ -0.246527001261711, 39.227359771728572 ], [ -0.246249005198479, 39.227359771728572 ], [ -0.246249005198479, 39.227085113525334 ], [ -0.245973005890789, 39.227085113525334 ], [ -0.245973005890789, 39.226528167724609 ], [ -0.245694994926396, 39.226528167724609 ], [ -0.245694994926396, 39.225971221923828 ], [ -0.245416998863163, 39.225971221923828 ], [ -0.245416998863163, 39.225692749023438 ], [ -0.245139002799931, 39.225692749023438 ], [ -0.245139002799931, 39.225418090820426 ], [ -0.244861006736699, 39.225418090820426 ], [ -0.244861006736699, 39.225139617920036 ], [ -0.244582995772305, 39.225139617920036 ], [ -0.244582995772305, 39.224582672119254 ], [ -0.244304999709072, 39.224582672119254 ], [ -0.244304999709072, 39.224029541015682 ], [ -0.24402700364584, 39.224029541015682 ], [ -0.24402700364584, 39.22319412231451 ], [ -0.243751004338264, 39.22319412231451 ], [ -0.243751004338264, 39.222915649414119 ], [ -0.243472993373871, 39.222915649414119 ], [ -0.243472993373871, 39.222362518310547 ], [ -0.243194997310638, 39.222362518310547 ], [ -0.243194997310638, 39.222084045410156 ], [ -0.242917001247406, 39.222084045410156 ], [ -0.242917001247406, 39.221527099609375 ], [ -0.242639005184174, 39.221527099609375 ], [ -0.242639005184174, 39.221248626709041 ], [ -0.24236099421978, 39.221248626709041 ], [ -0.24236099421978, 39.220695495605412 ], [ -0.242082998156548, 39.220695495605412 ], [ -0.242082998156548, 39.220417022705021 ], [ -0.241805002093315, 39.220417022705021 ], [ -0.241805002093315, 39.219860076904297 ], [ -0.241529002785626, 39.219860076904297 ], [ -0.241529002785626, 39.219581604003906 ], [ -0.241251006722393, 39.219581604003906 ], [ -0.241251006722393, 39.219028472900504 ], [ -0.240972995758, 39.219028472900504 ], [ -0.240972995758, 39.218750000000114 ], [ -0.240694999694767, 39.218750000000114 ], [ -0.240694999694767, 39.218193054199332 ], [ -0.240417003631535, 39.218193054199332 ], [ -0.240417003631535, 39.217918395996151 ], [ -0.240138992667141, 39.217918395996151 ], [ -0.240138992667141, 39.217361450195369 ], [ -0.239859998226166, 39.217361450195369 ], [ -0.239859998226166, 39.217082977294979 ], [ -0.239582002162933, 39.217082977294979 ], [ -0.239582002162933, 39.216526031494197 ], [ -0.239307001233101, 39.216526031494197 ], [ -0.239307001233101, 39.216251373291016 ], [ -0.239029005169868, 39.216251373291016 ], [ -0.239029005169868, 39.215694427490234 ], [ -0.238750994205475, 39.215694427490234 ], [ -0.238750994205475, 39.215415954589844 ], [ -0.238471999764442, 39.215415954589844 ], [ -0.238471999764442, 39.214862823486442 ], [ -0.238194003701096, 39.214862823486442 ], [ -0.238194003701096, 39.214584350586051 ], [ -0.237915992736816, 39.214584350586051 ], [ -0.237915992736816, 39.214027404785099 ], [ -0.237637996673584, 39.214027404785099 ], [ -0.237637996673584, 39.213748931884766 ], [ -0.237360000610352, 39.213748931884766 ], [ -0.237360000610352, 39.213645935058537 ], [ -0.237360000610352, 39.213195800781307 ], [ -0.237086996436119, 39.213195800781307 ], [ -0.237082004547005, 39.212917327880973 ], [ -0.23691600561142, 39.212917327880973 ], [ -0.236806005239487, 39.212917327880973 ], [ -0.236806005239487, 39.212738037109375 ], [ -0.236806005239487, 39.212360382080192 ], [ -0.23657600581646, 39.212360382080192 ], [ -0.236527994275036, 39.212081909179801 ], [ -0.236405000090599, 39.212081909179801 ], [ -0.236249998211804, 39.212081909179801 ], [ -0.236249998211804, 39.211830139160213 ], [ -0.236249998211804, 39.211528778076229 ], [ -0.236065998673439, 39.211528778076229 ], [ -0.235972002148628, 39.211528778076229 ], [ -0.235972002148628, 39.21136474609375 ], [ -0.235972002148628, 39.211250305175838 ], [ -0.235694006085396, 39.211250305175838 ], [ -0.235694006085396, 39.210922241211051 ], [ -0.235694006085396, 39.210693359375057 ], [ -0.235554993152618, 39.210693359375057 ], [ -0.235415995120945, 39.210693359375057 ], [ -0.235415995120945, 39.210414886474666 ], [ -0.235137999057713, 39.210414886474666 ], [ -0.235137999057713, 39.210014343261662 ], [ -0.235137999057713, 39.209861755371094 ], [ -0.234860002994537, 39.209861755371094 ], [ -0.234860002994537, 39.209560394287109 ], [ -0.234860002994537, 39.209304809570312 ], [ -0.234705001115742, 39.209304809570312 ], [ -0.234584003686905, 39.209304809570312 ], [ -0.234584003686905, 39.2091064453125 ], [ -0.234584003686905, 39.209026336669922 ], [ -0.234305992722511, 39.209026336669922 ], [ -0.234305992722511, 39.208652496337891 ], [ -0.234305992722511, 39.20847320556652 ], [ -0.234194993972778, 39.20847320556652 ], [ -0.234027996659279, 39.20847320556652 ], [ -0.234027996659279, 39.208198547363338 ], [ -0.234027996659279, 39.207916259765568 ], [ -0.233854994177761, 39.207916259765568 ], [ -0.233750000596046, 39.207916259765568 ], [ -0.233750000596046, 39.207744598388729 ], [ -0.233750000596046, 39.207359313964844 ], [ -0.233512997627201, 39.207359313964844 ], [ -0.233472004532814, 39.207084655761776 ], [ -0.233344003558159, 39.207084655761776 ], [ -0.23319399356842, 39.207084655761776 ], [ -0.23319399356842, 39.206836700439567 ], [ -0.23319399356842, 39.206527709961051 ], [ -0.232915997505188, 39.206527709961051 ], [ -0.232915997505188, 39.206382751464957 ], [ -0.232915997505188, 39.20597076416027 ], [ -0.232639998197499, 39.20597076416027 ], [ -0.232638001441956, 39.205696105957031 ], [ -0.232497006654739, 39.205696105957031 ], [ -0.232362002134266, 39.205696105957031 ], [ -0.232362002134266, 39.205478668213004 ], [ -0.232362002134266, 39.205139160156307 ], [ -0.232154995203018, 39.205139160156307 ], [ -0.232139006257057, 39.205017089843864 ], [ -0.232084006071034, 39.204582214355526 ], [ -0.231812998652458, 39.204582214355526 ], [ -0.23180599510664, 39.204303741455135 ], [ -0.231641992926541, 39.204303741455135 ], [ -0.231527999043408, 39.204303741455135 ], [ -0.231527999043408, 39.204116821289062 ], [ -0.231527999043408, 39.203750610351562 ], [ -0.231250002980175, 39.203750610351562 ], [ -0.231250002980175, 39.203659057617244 ], [ -0.231250002980175, 39.203193664550781 ], [ -0.230972006916943, 39.203193664550781 ], [ -0.230972006916943, 39.202640533447379 ], [ -0.230693995952549, 39.202640533447379 ], [ -0.230693995952549, 39.202362060546989 ], [ -0.230415999889317, 39.202362060546989 ], [ -0.230415999889317, 39.202083587646598 ], [ -0.230284005403405, 39.202083587646598 ], [ -0.230140000581741, 39.202083587646598 ], [ -0.230138003826085, 39.201847076416072 ], [ -0.230138003826085, 39.201248168945256 ], [ -0.229862004518509, 39.201248168945256 ], [ -0.229862004518509, 39.200973510742244 ], [ -0.229604005813599, 39.200973510742244 ], [ -0.229583993554115, 39.200416564941463 ], [ -0.229305997490883, 39.200416564941463 ], [ -0.229305997490883, 39.199859619140739 ], [ -0.22902800142765, 39.199859619140739 ], [ -0.22902800142765, 39.1995849609375 ], [ -0.228753998875618, 39.1995849609375 ], [ -0.228750005364418, 39.199028015136776 ], [ -0.228471994400024, 39.199028015136776 ], [ -0.228471994400024, 39.198749542236385 ], [ -0.228193998336792, 39.198749542236385 ], [ -0.228193998336792, 39.198471069335994 ], [ -0.228073000907898, 39.198471069335994 ], [ -0.227917999029103, 39.198471069335994 ], [ -0.227917999029103, 39.198215484619197 ], [ -0.227917999029103, 39.197917938232422 ], [ -0.22764000296587, 39.197917938232422 ], [ -0.22764000296587, 39.197761535644645 ], [ -0.22764000296587, 39.19708251953125 ], [ -0.227362006902638, 39.19708251953125 ], [ -0.227362006902638, 39.196804046630859 ], [ -0.227083995938244, 39.196804046630859 ], [ -0.227083995938244, 39.196529388427848 ], [ -0.226864993572235, 39.196495056152344 ], [ -0.226805999875012, 39.196392059326172 ], [ -0.226805999875012, 39.196250915527457 ], [ -0.226528003811779, 39.196250915527457 ], [ -0.226528003811779, 39.195972442627067 ], [ -0.226248994469643, 39.195972442627067 ], [ -0.226248994469643, 39.195693969726676 ], [ -0.22597099840641, 39.195693969726676 ], [ -0.22597099840641, 39.195041656494084 ], [ -0.22597099840641, 39.194862365722713 ], [ -0.22586199641222, 39.194862365722713 ], [ -0.225695997476578, 39.194862365722713 ], [ -0.225695997476578, 39.194587707519531 ], [ -0.225695997476578, 39.194305419921932 ], [ -0.22552199661726, 39.194305419921932 ], [ -0.225418001413345, 39.194305419921932 ], [ -0.225418001413345, 39.194133758544922 ], [ -0.225418001413345, 39.194026947021541 ], [ -0.225140005350113, 39.194026947021541 ], [ -0.225140005350113, 39.193748474121207 ], [ -0.224860996007919, 39.193748474121207 ], [ -0.224860996007919, 39.193195343017578 ], [ -0.224582999944687, 39.193195343017578 ], [ -0.224582999944687, 39.192771911621151 ], [ -0.224582999944687, 39.192638397216854 ], [ -0.224305003881341, 39.192638397216854 ], [ -0.224305003881341, 39.192317962646598 ], [ -0.224305003881341, 39.192081451416072 ], [ -0.22415900230402, 39.192081451416072 ], [ -0.224026992917061, 39.192081451416072 ], [ -0.224026992917061, 39.191864013671989 ], [ -0.224026992917061, 39.1915283203125 ], [ -0.22382000088686, 39.191520690917912 ], [ -0.223805993795395, 39.191402435302848 ], [ -0.223748996853828, 39.190971374511719 ], [ -0.223480001091957, 39.190971374511719 ], [ -0.223471000790596, 39.190139770507926 ], [ -0.223195001482964, 39.190139770507926 ], [ -0.223195001482964, 39.189304351806754 ], [ -0.222917005419731, 39.189304351806754 ], [ -0.222917005419731, 39.189025878906364 ], [ -0.222638994455281, 39.189025878906364 ], [ -0.222638994455281, 39.188751220703182 ], [ -0.222083002328873, 39.188751220703182 ], [ -0.222083002328873, 39.188472747802791 ], [ -0.22180500626564, 39.188472747802791 ], [ -0.22180500626564, 39.188194274902401 ], [ -0.22152699530119, 39.188194274902401 ], [ -0.22152699530119, 39.18791580200201 ], [ -0.220972999930382, 39.18791580200201 ], [ -0.220972999930382, 39.187637329101619 ], [ -0.220695003867149, 39.187637329101619 ], [ -0.220695003867149, 39.187362670898438 ], [ -0.220416992902756, 39.187362670898438 ], [ -0.220416992902756, 39.187084197998047 ], [ -0.217773005366269, 39.187084197998047 ], [ -0.216251000761986, 39.187084197998047 ], [ -0.216251000761986, 39.186805725097656 ], [ -0.215973004698753, 39.186805725097656 ], [ -0.215973004698753, 39.186393737792969 ], [ -0.215973004698753, 39.186077117919865 ], [ -0.215973004698753, 39.185695648193303 ], [ -0.216251000761986, 39.185695648193303 ], [ -0.216251000761986, 39.185417175292912 ], [ -0.216446995735112, 39.185417175292912 ], [ -0.216804996132794, 39.185417175292912 ], [ -0.216804996132794, 39.185138702392578 ], [ -0.217083007097187, 39.185138702392578 ], [ -0.217083007097187, 39.184646606445256 ], [ -0.217083007097187, 39.184532165527401 ], [ -0.217083007097187, 39.184307098388786 ], [ -0.217244997620583, 39.184307098388786 ], [ -0.21736100316042, 39.184307098388786 ], [ -0.21736100316042, 39.184146881103629 ], [ -0.21736100316042, 39.184028625488395 ], [ -0.217638999223652, 39.184028625488395 ], [ -0.217638999223652, 39.183757781982536 ], [ -0.217638999223652, 39.183471679687614 ], [ -0.217916995286885, 39.183471679687614 ], [ -0.217916995286885, 39.182918548584041 ], [ -0.218243002891541, 39.182918548584041 ], [ -0.218473002314511, 39.182918548584041 ], [ -0.218473002314511, 39.182769775390625 ], [ -0.218473002314511, 39.182640075683651 ], [ -0.218750998377743, 39.182640075683651 ], [ -0.218750998377743, 39.182212829589844 ], [ -0.218750998377743, 39.181804656982479 ], [ -0.219026997685432, 39.181804656982479 ], [ -0.219026997685432, 39.181526184082088 ], [ -0.219304993748665, 39.181526184082088 ], [ -0.219304993748665, 39.181251525878906 ], [ -0.219438999891281, 39.181251525878906 ], [ -0.219583004713058, 39.181251525878906 ], [ -0.219583004713058, 39.181053161621094 ], [ -0.219583004713058, 39.180973052978516 ], [ -0.219861000776291, 39.180973052978516 ], [ -0.219861000776291, 39.180694580078125 ], [ -0.220416992902756, 39.180694580078125 ], [ -0.220416992902756, 39.180973052978516 ], [ -0.220695003867149, 39.180973052978516 ], [ -0.220695003867149, 39.181251525878906 ], [ -0.220972999930382, 39.181251525878906 ], [ -0.220972999930382, 39.181526184082088 ], [ -0.221248999237957, 39.181526184082088 ], [ -0.221248999237957, 39.181804656982479 ], [ -0.22180500626564, 39.181804656982479 ], [ -0.22180500626564, 39.182083129882869 ], [ -0.223195001482964, 39.182083129882869 ], [ -0.223195001482964, 39.181926727294922 ], [ -0.223195001482964, 39.181804656982479 ], [ -0.223471000790596, 39.181804656982479 ], [ -0.223471000790596, 39.181526184082088 ], [ -0.223748996853828, 39.181526184082088 ], [ -0.223748996853828, 39.181251525878906 ], [ -0.224026992917061, 39.181251525878906 ], [ -0.224026992917061, 39.180973052978516 ], [ -0.225418001413345, 39.180973052978516 ], [ -0.225418001413345, 39.181251525878906 ], [ -0.225695997476578, 39.181251525878906 ], [ -0.225695997476578, 39.181526184082088 ], [ -0.22597099840641, 39.181526184082088 ], [ -0.22597099840641, 39.181804656982479 ], [ -0.22764000296587, 39.181804656982479 ], [ -0.22764000296587, 39.181526184082088 ], [ -0.227917999029103, 39.181526184082088 ], [ -0.227917999029103, 39.181251525878906 ], [ -0.228193998336792, 39.181251525878906 ], [ -0.228193998336792, 39.180973052978516 ], [ -0.228750005364418, 39.180973052978516 ], [ -0.228750005364418, 39.180694580078125 ], [ -0.22902800142765, 39.180694580078125 ], [ -0.22902800142765, 39.180416107177734 ], [ -0.229305997490883, 39.180416107177734 ], [ -0.229305997490883, 39.180137634277344 ], [ -0.229583993554115, 39.180137634277344 ], [ -0.229583993554115, 39.179862976074332 ], [ -0.230693995952549, 39.179862976074332 ], [ -0.230693995952549, 39.180137634277344 ], [ -0.230972006916943, 39.180137634277344 ], [ -0.230972006916943, 39.180416107177734 ], [ -0.231527999043408, 39.180416107177734 ], [ -0.231527999043408, 39.180694580078125 ], [ -0.23180599510664, 39.180694580078125 ], [ -0.23180599510664, 39.180973052978516 ], [ -0.23319399356842, 39.180973052978516 ], [ -0.23319399356842, 39.180694580078125 ], [ -0.234305992722511, 39.180694580078125 ], [ -0.234305992722511, 39.180416107177734 ], [ -0.235694006085396, 39.180416107177734 ], [ -0.235694006085396, 39.180137634277344 ], [ -0.235972002148628, 39.180137634277344 ], [ -0.235972002148628, 39.179584503173942 ], [ -0.236249998211804, 39.179584503173942 ], [ -0.236249998211804, 39.17902755737299 ], [ -0.236527994275036, 39.17902755737299 ], [ -0.236527994275036, 39.178749084472656 ], [ -0.236806005239487, 39.178749084472656 ], [ -0.236806005239487, 39.178470611572266 ], [ -0.237082004547005, 39.178470611572266 ], [ -0.237082004547005, 39.178195953369197 ], [ -0.237360000610352, 39.178195953369197 ], [ -0.237360000610352, 39.177917480468864 ], [ -0.237637996673584, 39.177917480468864 ], [ -0.237637996673584, 39.177639007568473 ], [ -0.237915992736816, 39.177639007568473 ], [ -0.237915992736816, 39.177360534668082 ], [ -0.238194003701096, 39.177360534668082 ], [ -0.238194003701096, 39.177082061767692 ], [ -0.238471999764442, 39.177082061767692 ], [ -0.238471999764442, 39.176250457763729 ], [ -0.238750994205475, 39.176250457763729 ], [ -0.238750994205475, 39.175693511962947 ], [ -0.239029005169868, 39.175693511962947 ], [ -0.239029005169868, 39.175415039062557 ], [ -0.239307001233101, 39.175415039062557 ], [ -0.239307001233101, 39.175140380859375 ], [ -0.239582002162933, 39.175140380859375 ], [ -0.239582002162933, 39.174861907958984 ], [ -0.239859998226166, 39.174861907958984 ], [ -0.239859998226166, 39.174304962158203 ], [ -0.240138992667141, 39.174304962158203 ], [ -0.240138992667141, 39.173473358154411 ], [ -0.240417003631535, 39.173473358154411 ], [ -0.240417003631535, 39.172359466552734 ], [ -0.240694999694767, 39.172359466552734 ], [ -0.240694999694767, 39.171527862548942 ], [ -0.240972995758, 39.171527862548942 ], [ -0.240972995758, 39.170696258544922 ], [ -0.241251006722393, 39.170696258544922 ], [ -0.241251006722393, 39.168918609619084 ], [ -0.241251006722393, 39.167362213134879 ], [ -0.241529002785626, 39.167362213134879 ], [ -0.241529002785626, 39.155971527099609 ], [ -0.241251006722393, 39.155971527099609 ], [ -0.241251006722393, 39.155418395996207 ], [ -0.240972995758, 39.155418395996207 ], [ -0.240972995758, 39.154861450195426 ], [ -0.240694999694767, 39.154861450195426 ], [ -0.240694999694767, 39.153751373291072 ], [ -0.240417003631535, 39.153751373291072 ], [ -0.240417003631535, 39.152084350585938 ], [ -0.240138992667141, 39.152084350585938 ], [ -0.240138992667141, 39.151527404785156 ], [ -0.239859998226166, 39.151527404785156 ], [ -0.239859998226166, 39.151248931884822 ], [ -0.239582002162933, 39.151248931884822 ], [ -0.239582002162933, 39.150695800781193 ], [ -0.239307001233101, 39.150695800781193 ], [ -0.239307001233101, 39.149028778076286 ], [ -0.239582002162933, 39.149028778076286 ], [ -0.239582002162933, 39.148300170898494 ], [ -0.239582002162933, 39.148193359375114 ], [ -0.239859998226166, 39.148193359375114 ], [ -0.239859998226166, 39.14708328247076 ], [ -0.239582002162933, 39.14708328247076 ], [ -0.239582002162933, 39.145973205566406 ], [ -0.239307001233101, 39.145973205566406 ], [ -0.239307001233101, 39.145137786865234 ], [ -0.239029005169868, 39.145137786865234 ], [ -0.239029005169868, 39.144306182861271 ], [ -0.238750994205475, 39.144306182861271 ], [ -0.238750994205475, 39.143470764160156 ], [ -0.238471999764442, 39.143470764160156 ], [ -0.238471999764442, 39.142639160156364 ], [ -0.238194003701096, 39.142639160156364 ], [ -0.238194003701096, 39.142360687255973 ], [ -0.237915992736816, 39.142360687255973 ], [ -0.237915992736816, 39.141803741455192 ], [ -0.237637996673584, 39.141803741455192 ], [ -0.237637996673584, 39.140972137451229 ], [ -0.237360000610352, 39.140972137451229 ], [ -0.237360000610352, 39.140140533447266 ], [ -0.237112000584546, 39.140140533447266 ], [ -0.237082004547005, 39.139583587646484 ], [ -0.236910998821259, 39.139583587646484 ], [ -0.236806005239487, 39.139583587646484 ], [ -0.236806005239487, 39.139305114746094 ], [ -0.236527994275036, 39.139305114746094 ], [ -0.236527994275036, 39.138515472412166 ], [ -0.236249998211804, 39.138473510742301 ], [ -0.236249998211804, 39.137741088867188 ], [ -0.236249998211804, 39.135971069336051 ], [ -0.235972002148628, 39.135971069336051 ], [ -0.235972002148628, 39.135692596435661 ], [ -0.235694006085396, 39.135692596435661 ], [ -0.235694006085396, 39.135139465332088 ], [ -0.235415995120945, 39.135139465332088 ], [ -0.235415995120945, 39.134582519531307 ], [ -0.235137999057713, 39.134582519531307 ], [ -0.235137999057713, 39.134304046630916 ], [ -0.235015004873276, 39.134304046630916 ], [ -0.234860002994537, 39.134304046630916 ], [ -0.234860002994537, 39.133876800537109 ], [ -0.234860002994537, 39.133193969726562 ], [ -0.234584003686905, 39.133193969726562 ], [ -0.234584003686905, 39.132637023925781 ], [ -0.234321996569633, 39.132637023925781 ], [ -0.234305992722511, 39.132083892822379 ], [ -0.234069004654827, 39.132083892822379 ], [ -0.234027996659279, 39.131248474121037 ], [ -0.233750000596046, 39.131248474121037 ], [ -0.233750000596046, 39.130973815918026 ], [ -0.233556002378464, 39.130973815918026 ], [ -0.233472004532814, 39.130973815918026 ], [ -0.233472004532814, 39.130783081054744 ], [ -0.233472004532814, 39.130138397216911 ], [ -0.23319399356842, 39.130138397216911 ], [ -0.23319399356842, 39.12985992431652 ], [ -0.233043998479786, 39.12985992431652 ], [ -0.232915997505188, 39.12985992431652 ], [ -0.232915997505188, 39.129585266113281 ], [ -0.232915997505188, 39.129028320312557 ], [ -0.232639998197499, 39.129028320312557 ], [ -0.232638001441956, 39.128192901611385 ], [ -0.232362002134266, 39.128192901611385 ], [ -0.232362002134266, 39.127082824707031 ], [ -0.232638001441956, 39.127082824707031 ], [ -0.232639998197499, 39.126804351806641 ], [ -0.233472004532814, 39.126804351806641 ], [ -0.233472004532814, 39.127082824707031 ], [ -0.233750000596046, 39.127082824707031 ], [ -0.233750000596046, 39.127361297607422 ], [ -0.234305992722511, 39.127361297607422 ], [ -0.234305992722511, 39.127639770507812 ], [ -0.234584003686905, 39.127639770507812 ], [ -0.234584003686905, 39.127918243408203 ], [ -0.235137999057713, 39.127918243408203 ], [ -0.235137999057713, 39.128192901611385 ], [ -0.235415995120945, 39.128192901611385 ], [ -0.235415995120945, 39.128471374511776 ], [ -0.236249998211804, 39.128471374511776 ], [ -0.236249998211804, 39.128749847412166 ], [ -0.236527994275036, 39.128749847412166 ], [ -0.236527994275036, 39.128471374511776 ], [ -0.236806005239487, 39.128471374511776 ], [ -0.236806005239487, 39.127918243408203 ], [ -0.236527994275036, 39.127918243408203 ], [ -0.236527994275036, 39.127639770507812 ], [ -0.235694006085396, 39.127639770507812 ], [ -0.235694006085396, 39.127361297607422 ], [ -0.235415995120945, 39.127361297607422 ], [ -0.235415995120945, 39.127082824707031 ], [ -0.234860002994537, 39.127082824707031 ], [ -0.234860002994537, 39.126804351806641 ], [ -0.234305992722511, 39.126804351806641 ], [ -0.234305992722511, 39.12652587890625 ], [ -0.234027996659279, 39.12652587890625 ], [ -0.234027996659279, 39.126251220703239 ], [ -0.233750000596046, 39.126251220703239 ], [ -0.233750000596046, 39.125972747802848 ], [ -0.232362002134266, 39.125972747802848 ], [ -0.232362002134266, 39.125694274902457 ], [ -0.232084006071034, 39.125694274902457 ], [ -0.232084006071034, 39.125137329101506 ], [ -0.23180599510664, 39.125137329101506 ], [ -0.23180599510664, 39.124584197998104 ], [ -0.231527999043408, 39.124584197998104 ], [ -0.231527999043408, 39.124027252197322 ], [ -0.231250002980175, 39.124027252197322 ], [ -0.231250002980175, 39.123748779296989 ], [ -0.230972006916943, 39.123748779296989 ], [ -0.230972006916943, 39.12347412109375 ], [ -0.230693995952549, 39.123470306396598 ], [ -0.230693995952549, 39.123195648193359 ], [ -0.230140000581741, 39.123195648193359 ], [ -0.230138003826085, 39.122917175292969 ], [ -0.229846000671273, 39.122917175292969 ], [ -0.229583993554115, 39.122917175292969 ], [ -0.229583993554115, 39.122348785400504 ], [ -0.229583993554115, 39.122081756591854 ], [ -0.229460999369564, 39.122081756591854 ], [ -0.229305997490883, 39.122081756591854 ], [ -0.229305997490883, 39.121746063232536 ], [ -0.229305997490883, 39.121250152587891 ], [ -0.229077994823456, 39.121250152587891 ], [ -0.229065999388695, 39.121139526367131 ], [ -0.22902800142765, 39.120693206787109 ], [ -0.228819996118489, 39.120693206787109 ], [ -0.228799998760223, 39.120532989501953 ], [ -0.228750005364418, 39.120140075683707 ], [ -0.228471994400024, 39.120140075683707 ], [ -0.228471994400024, 39.119937896728516 ], [ -0.228471994400024, 39.119583129882926 ], [ -0.228310003876629, 39.119583129882926 ], [ -0.228193998336792, 39.119583129882926 ], [ -0.228193998336792, 39.119335174560547 ], [ -0.228193998336792, 39.118751525878963 ], [ -0.227917999029103, 39.118751525878963 ], [ -0.227917999029103, 39.117084503173828 ], [ -0.22764000296587, 39.117084503173828 ], [ -0.22764000296587, 39.114582061767578 ], [ -0.227362006902638, 39.114582061767578 ], [ -0.227362006902638, 39.114307403564567 ], [ -0.227083995938244, 39.114307403564567 ], [ -0.227083995938244, 39.113750457763786 ], [ -0.226805999875012, 39.113750457763786 ], [ -0.226805999875012, 39.113471984863395 ], [ -0.226528003811779, 39.113471984863395 ], [ -0.226528003811779, 39.113193511963004 ], [ -0.226248994469643, 39.113193511963004 ], [ -0.226248994469643, 39.112640380859432 ], [ -0.22597099840641, 39.112640380859432 ], [ -0.22597099840641, 39.112361907959041 ], [ -0.225695997476578, 39.112361907959041 ], [ -0.225695997476578, 39.111526489257869 ], [ -0.225418001413345, 39.111526489257869 ], [ -0.225418001413345, 39.110973358154297 ], [ -0.225140005350113, 39.110973358154297 ], [ -0.225140005350113, 39.109859466552791 ], [ -0.224860996007919, 39.109859466552791 ], [ -0.224860996007919, 39.108470916748047 ], [ -0.224582999944687, 39.108470916748047 ], [ -0.224582999944687, 39.107639312744254 ], [ -0.224026992917061, 39.107639312744254 ], [ -0.224026992917061, 39.107360839843864 ], [ -0.223748996853828, 39.107360839843864 ], [ -0.223748996853828, 39.107082366943473 ], [ -0.223471000790596, 39.107082366943473 ], [ -0.223471000790596, 39.106803894043082 ], [ -0.222917005419731, 39.106803894043082 ], [ -0.222917005419731, 39.10625076293951 ], [ -0.222638994455281, 39.10625076293951 ], [ -0.222638994455281, 39.105693817138729 ], [ -0.222360998392048, 39.105693817138729 ], [ -0.222360998392048, 39.105415344238338 ], [ -0.222083002328873, 39.105415344238338 ], [ -0.222083002328873, 39.104862213134766 ], [ -0.22180500626564, 39.104862213134766 ], [ -0.22180500626564, 39.104305267333984 ], [ -0.22152699530119, 39.104305267333984 ], [ -0.22152699530119, 39.103473663330192 ], [ -0.221248999237957, 39.103473663330192 ], [ -0.221248999237957, 39.103195190429801 ], [ -0.220972999930382, 39.103195190429801 ], [ -0.220972999930382, 39.102638244628849 ], [ -0.220695003867149, 39.102638244628849 ], [ -0.220695003867149, 39.100692749023551 ], [ -0.220416992902756, 39.100692749023551 ], [ -0.220416992902756, 39.099304199218807 ], [ -0.220138996839523, 39.099304199218807 ], [ -0.220138996839523, 39.099029541015625 ], [ -0.219861000776291, 39.099029541015625 ], [ -0.219861000776291, 39.098751068115234 ], [ -0.219583004713058, 39.098751068115234 ], [ -0.219583004713058, 39.097915649414062 ], [ -0.219304993748665, 39.097915649414062 ], [ -0.219304993748665, 39.097362518310661 ], [ -0.219026997685432, 39.097362518310661 ], [ -0.219026997685432, 39.096527099609318 ], [ -0.218750998377743, 39.096527099609318 ], [ -0.218750998377743, 39.096248626708928 ], [ -0.218473002314511, 39.096248626708928 ], [ -0.218473002314511, 39.095973968505916 ], [ -0.218195006251278, 39.095973968505916 ], [ -0.218195006251278, 39.095417022705135 ], [ -0.217916995286885, 39.095417022705135 ], [ -0.217916995286885, 39.094860076904411 ], [ -0.217638999223652, 39.094860076904411 ], [ -0.217638999223652, 39.09458160400402 ], [ -0.21736100316042, 39.09458160400402 ], [ -0.21736100316042, 39.094028472900447 ], [ -0.217083007097187, 39.094028472900447 ], [ -0.217083007097187, 39.093193054199276 ], [ -0.216804996132794, 39.093193054199276 ], [ -0.216804996132794, 39.092082977294922 ], [ -0.216528996825218, 39.092082977294922 ], [ -0.216527000069561, 39.091526031494141 ], [ -0.216251000761986, 39.091526031494141 ], [ -0.216251000761986, 39.090694427490348 ], [ -0.215973004698753, 39.090694427490348 ], [ -0.215973004698753, 39.090137481689396 ], [ -0.21569499373436, 39.090137481689396 ], [ -0.21569499373436, 39.089584350585994 ], [ -0.215416997671127, 39.089584350585994 ], [ -0.215416997671127, 39.089027404785213 ], [ -0.215139001607895, 39.089027404785213 ], [ -0.215139001607895, 39.088748931884879 ], [ -0.214861005544662, 39.088748931884879 ], [ -0.214861005544662, 39.088470458984489 ], [ -0.214582994580269, 39.088470458984489 ], [ -0.214582994580269, 39.087638854980526 ], [ -0.214304000139123, 39.087638854980526 ], [ -0.214304000139123, 39.087081909179744 ], [ -0.214028999209347, 39.087081909179744 ], [ -0.214028999209347, 39.086528778076172 ], [ -0.213751003146115, 39.086528778076172 ], [ -0.213751003146115, 39.085414886474609 ], [ -0.213473007082882, 39.085414886474609 ], [ -0.213473007082882, 39.084861755371207 ], [ -0.213194996118489, 39.084861755371207 ], [ -0.213194996118489, 39.084026336670036 ], [ -0.212917000055256, 39.084026336670036 ], [ -0.212917000055256, 39.083751678466854 ], [ -0.212638005614281, 39.083751678466854 ], [ -0.212638005614281, 39.082916259765682 ], [ -0.212359994649887, 39.082916259765682 ], [ -0.212359994649887, 39.081806182861328 ], [ -0.212081998586655, 39.081806182861328 ], [ -0.212081998586655, 39.081249237060604 ], [ -0.211806997656822, 39.081249237060604 ], [ -0.211806997656822, 39.080696105956974 ], [ -0.21152900159359, 39.080696105956974 ], [ -0.21152900159359, 39.080417633056584 ], [ -0.211250007152444, 39.080417633056584 ], [ -0.211250007152444, 39.079303741455078 ], [ -0.210971996188164, 39.079303741455078 ], [ -0.210971996188164, 39.079029083252067 ], [ -0.210694000124931, 39.079029083252067 ], [ -0.210694000124931, 39.078472137451286 ], [ -0.210416004061585, 39.078472137451286 ], [ -0.210416004061585, 39.077362060546932 ], [ -0.210137993097305, 39.077362060546932 ], [ -0.210137993097305, 39.076805114746151 ], [ -0.209859997034073, 39.076805114746151 ], [ -0.209859997034073, 39.076248168945369 ], [ -0.209583997726384, 39.076248168945369 ], [ -0.209583997726384, 39.075695037841797 ], [ -0.209306001663208, 39.075695037841797 ], [ -0.209306001663208, 39.074859619140682 ], [ -0.209028005599976, 39.074859619140682 ], [ -0.209028005599976, 39.074584960937614 ], [ -0.208749994635525, 39.074584960937614 ], [ -0.208749994635525, 39.074028015136662 ], [ -0.208471998572293, 39.074028015136662 ], [ -0.208471998572293, 39.073192596435547 ], [ -0.208194002509117, 39.073192596435547 ], [ -0.208194002509117, 39.072360992431754 ], [ -0.207916006445885, 39.072360992431754 ], [ -0.207916006445885, 39.072082519531364 ], [ -0.207637995481434, 39.072082519531364 ], [ -0.207637995481434, 39.071529388427791 ], [ -0.207359999418202, 39.071529388427791 ], [ -0.207359999418202, 39.071250915527401 ], [ -0.207084000110626, 39.071250915527401 ], [ -0.207084000110626, 39.070693969726619 ], [ -0.206806004047394, 39.070693969726619 ], [ -0.206806004047394, 39.070137023925838 ], [ -0.206527993083, 39.070137023925838 ], [ -0.206527993083, 39.069862365722656 ], [ -0.206249997019768, 39.069862365722656 ], [ -0.206249997019768, 39.069305419921875 ], [ -0.205972000956535, 39.069305419921875 ], [ -0.205972000956535, 39.069026947021484 ], [ -0.205694004893303, 39.069026947021484 ], [ -0.205694004893303, 39.068195343017692 ], [ -0.205415993928909, 39.068195343017692 ], [ -0.205415993928909, 39.06763839721674 ], [ -0.205137997865677, 39.06763839721674 ], [ -0.205137997865677, 39.067081451416016 ], [ -0.204861998557988, 39.067081451416016 ], [ -0.204861998557988, 39.066806793212947 ], [ -0.204584002494755, 39.066806793212947 ], [ -0.204584002494755, 39.066528320312614 ], [ -0.204306006431523, 39.066528320312614 ], [ -0.204306006431523, 39.065971374511832 ], [ -0.204027995467129, 39.065971374511832 ], [ -0.204027995467129, 39.06541824340826 ], [ -0.203749999403897, 39.06541824340826 ], [ -0.203749999403897, 39.065139770507869 ], [ -0.203472003340664, 39.065139770507869 ], [ -0.203472003340664, 39.064582824707088 ], [ -0.203194007277432, 39.064582824707088 ], [ -0.203194007277432, 39.064304351806697 ], [ -0.202915996313038, 39.064304351806697 ], [ -0.202915996313038, 39.064025878906307 ], [ -0.202639997005463, 39.064025878906307 ], [ -0.202639997005463, 39.063751220703125 ], [ -0.20236200094223, 39.063751220703125 ], [ -0.20236200094223, 39.062362670898551 ], [ -0.202084004878998, 39.062362670898551 ], [ -0.202084004878998, 39.06180572509777 ], [ -0.201805993914604, 39.06180572509777 ], [ -0.201805993914604, 39.060974121093807 ], [ -0.201527997851372, 39.060970306396484 ], [ -0.201527997851372, 39.060695648193416 ], [ -0.201250001788139, 39.060695648193416 ], [ -0.201250001788139, 39.060417175293026 ], [ -0.200972005724907, 39.060417175293026 ], [ -0.200972005724907, 39.060138702392692 ], [ -0.200693994760513, 39.060138702392692 ], [ -0.200693994760513, 39.059307098388672 ], [ -0.200417995452824, 39.059307098388672 ], [ -0.200415000319367, 39.059028625488338 ], [ -0.200139999389592, 39.059028625488338 ], [ -0.200139999389592, 39.058471679687557 ], [ -0.199862003326359, 39.058471679687557 ], [ -0.199862003326359, 39.057918548583984 ], [ -0.199584007263127, 39.057914733886776 ], [ -0.199584007263127, 39.057640075683594 ], [ -0.199305996298733, 39.057640075683594 ], [ -0.199305996298733, 39.057083129882812 ], [ -0.199027001857758, 39.057083129882812 ], [ -0.199027001857758, 39.056804656982422 ], [ -0.198749005794525, 39.056804656982422 ], [ -0.198749005794525, 39.05625152587902 ], [ -0.198470994830132, 39.05625152587902 ], [ -0.198470994830132, 39.055694580078239 ], [ -0.198195993900299, 39.055694580078239 ], [ -0.198195993900299, 39.055137634277287 ], [ -0.197917997837067, 39.055137634277287 ], [ -0.197917997837067, 39.054584503173885 ], [ -0.197639003395921, 39.054584503173885 ], [ -0.197639003395921, 39.054027557373104 ], [ -0.197361007332688, 39.054027557373104 ], [ -0.197361007332688, 39.053470611572379 ], [ -0.197082996368408, 39.053470611572379 ], [ -0.197082996368408, 39.05291748046875 ], [ -0.196805000305176, 39.05291748046875 ], [ -0.196805000305176, 39.052360534668026 ], [ -0.19652700424183, 39.052360534668026 ], [ -0.19652700424183, 39.052082061767635 ], [ -0.19624899327755, 39.052082061767635 ], [ -0.19624899327755, 39.051807403564396 ], [ -0.195970997214317, 39.051807403564396 ], [ -0.19597299396986, 39.051250457763672 ], [ -0.195694997906628, 39.051250457763672 ], [ -0.195694997906628, 39.050693511962891 ], [ -0.195417001843452, 39.050693511962891 ], [ -0.195417001843452, 39.0504150390625 ], [ -0.19513900578022, 39.0504150390625 ], [ -0.19513900578022, 39.049861907959098 ], [ -0.19486099481577, 39.049861907959098 ], [ -0.19486099481577, 39.049304962158317 ], [ -0.194582998752537, 39.049304962158317 ], [ -0.194582998752537, 39.049026489257926 ], [ -0.194305002689362, 39.049026489257926 ], [ -0.194305002689362, 39.048751831054744 ], [ -0.194027006626129, 39.048751831054744 ], [ -0.194027006626129, 39.048473358154354 ], [ -0.193748995661679, 39.048473358154354 ], [ -0.193748995661679, 39.048210493675356 ], [ -0.433995276651558, 39.041062713002759 ], [ -0.582772557317526, 39.488877133656501 ], [ -0.323473006486836, 39.469739711034606 ] ] ] ] } }
]
}
