{
"type": "FeatureCollection",
"name": "Spain_AOI",
"crs": { "type": "name", "properties": { "name": "urn:ogc:def:crs:EPSG::3035" } },
"features": [
{ "type": "Feature", "properties": { "NUTS_ID": "ES5", "LEVL_CODE": 1, "CNTR_CODE": "ES", "NAME_LATN": "Este", "NUTS_NAME": "Este", "MOUNT_TYPE": 0, "URBN_TYPE": 0, "COAST_TYPE": 0, "Shape_Leng": 147353.96781599999, "Shape_Area": 1016701409.9000001 }, "geometry": { "type": "MultiPolygon", "coordinates": [ [ [ [ 3432444.03999999910593, 1879983.176400000229478 ], [ 3429681.126000000163913, 1874402.649800000712276 ], [ 3435676.085200000554323, 1836611.988700000569224 ], [ 3437727.540899999439716, 1832509.213999999687076 ], [ 3415274.849600000306964, 1834708.607200000435114 ], [ 3413349.7445, 1847731.749600000679493 ], [ 3410255.237700000405312, 1870968.473099999129772 ], [ 3408683.362700000405312, 1885582.59940000064671 ], [ 3432444.03999999910593, 1879983.176400000229478 ] ] ] ] } }
]
}
