{
"type": "FeatureCollection",
"name": "Spain_AOI_WGS84",
"crs": { "type": "name", "properties": { "name": "urn:ogc:def:crs:OGC:1.3:CRS84" } },
"features": [
{ "type": "Feature", "properties": { "NUTS_ID": "ES5", "LEVL_CODE": 1, "CNTR_CODE": "ES", "NAME_LATN": "Este", "NUTS_NAME": "Este", "MOUNT_TYPE": 0, "URBN_TYPE": 0, "COAST_TYPE": 0, "Shape_Leng": 147353.96781599999, "Shape_Area": 1016701409.9000001 }, "geometry": { "type": "MultiPolygon", "coordinates": [ [ [ [ -0.301920493426955, 39.468149036421956 ], [ -0.325691532210614, 39.414733002141389 ], [ -0.203883208373721, 39.083105837360087 ], [ -0.174764122377079, 39.048775322814741 ], [ -0.433995276974728, 39.041062706279519 ], [ -0.4745667236726, 39.155451559633484 ], [ -0.543471382478255, 39.35988774632483 ], [ -0.582772557166024, 39.488877127384136 ], [ -0.301920493426955, 39.468149036421956 ] ] ] ] } }
]
}
