{
"type": "FeatureCollection",
"name": "Texas_State_Boundary_1106215059088919288",
"crs": { "type": "name", "properties": { "name": "urn:ogc:def:crs:OGC:1.3:CRS84" } },
"features": [
{ "type": "Feature", "properties": { "OBJECTID": 2, "FIPS": null, "CREATE_USE": null, "CMNT": null }, "geometry": { "type": "Polygon", "coordinates": [ [ [ -99.458694109664762, 32.112912937342294 ], [ -100.376207257420731, 30.583724357749013 ], [ -98.63426200588404, 28.868373690205249 ], [ -96.160965694541858, 31.22199437357925 ], [ -98.740640341855737, 32.737885661176065 ], [ -98.740640341855737, 32.737885661176065 ], [ -99.458694109664762, 32.112912937342294 ] ] ] } }
]
}
